{
"type": "FeatureCollection",
"name": "ne_land_lowres",
"crs": { "type": "name", "properties": { "name": "urn:ogc:def:crs:OGC:1.3:CRS84" } },
"features": [
{ "type": "Feature", "properties": { "name": "land" }, "geometry": { "type": "MultiPolygon", "coordinates": [ [ [ [ -162.439846768218416, -79.281465346186991 ], [ -163.71289567772871, -78.595666605797291 ], [ -161.245113491846439, -78.380175883140183 ], [ -159.208183560197654, -79.497059421708684 ], [ -162.439846768218416, -79.281465346186991 ] ] ], [ [ [ -120.232217163709976, -74.088809916326142 ], [ -122.621735392886194, -73.657776794579618 ], [ -118.724143032691956, -73.481353454735171 ], [ -120.232217163709976, -74.088809916326142 ] ] ], [ [ [ -127.283130453126191, -73.461768086896541 ], [ -126.558471843097252, -73.24622568780714 ], [ -124.031881877266827, -73.873267517236727 ], [ -125.912180542638936, -73.736118265934095 ], [ -127.283130453126191, -73.461768086896541 ] ] ], [ [ [ -96.200349901091442, -72.521205342752154 ], [ -100.783455166409254, -72.501619974913538 ], [ -102.330725063876386, -71.894163513322567 ], [ -96.787936774466189, -71.952971293270721 ], [ -96.200349901091442, -72.521205342752154 ] ] ], [ [ [ -180.0, -16.067132663642447 ], [ -179.917369384765294, -16.501783135649397 ], [ -180.0, -16.555216566639196 ], [ -180.0, -16.067132663642447 ] ] ], [ [ [ -78.182095709938636, 8.319182440621773 ], [ -79.55787736684519, 8.932374986197146 ], [ -80.4806892564973, 8.090307522001069 ], [ -80.003689948227162, 7.547524115423372 ], [ -80.886400926420805, 7.220541490096537 ], [ -81.059542812814726, 7.817921047390597 ], [ -83.508437262694315, 8.446926581247283 ], [ -84.975660366541334, 10.086723130733006 ], [ -85.11092342806532, 9.55703969974131 ], [ -85.66078650586698, 9.933347479690724 ], [ -85.712540452807303, 11.088444932494824 ], [ -87.668493415054712, 12.909909979702633 ], [ -87.489408738947134, 13.297534898323931 ], [ -91.232410244496052, 13.927832342987957 ], [ -94.691656460330137, 16.200975246642884 ], [ -96.557434048228288, 15.653515122942792 ], [ -103.500989549558085, 18.292294623278849 ], [ -105.49303849976144, 19.946767279535436 ], [ -105.265817226974036, 21.422103583252351 ], [ -106.028716396898972, 22.773752346278627 ], [ -112.228234626090398, 28.954408677683489 ], [ -113.14866939985717, 31.170965887978923 ], [ -114.776451178835032, 31.79953217216115 ], [ -114.673899298951767, 30.162681179315996 ], [ -109.433392300232924, 23.185587673428699 ], [ -110.031391974714438, 22.823077500901206 ], [ -112.182035895621482, 24.738412787367167 ], [ -112.300710822379699, 26.012004299416617 ], [ -115.055142178185008, 27.722726752222911 ], [ -114.162018398884641, 28.566111965442303 ], [ -115.518653937626993, 29.556361599235402 ], [ -117.295937691273934, 33.046224615203869 ], [ -118.519894822799756, 34.027781577575752 ], [ -120.62286, 34.60855 ], [ -124.39807, 40.3132 ], [ -124.53284, 42.765990000000102 ], [ -123.89893, 45.52341 ], [ -124.687210083007812, 48.184432983398551 ], [ -123.12, 48.04 ], [ -122.58736, 47.096 ], [ -122.84, 49.000000000000114 ], [ -125.62461, 50.41656 ], [ -127.43561, 50.83061 ], [ -127.85032, 52.32961 ], [ -129.12979, 52.75538 ], [ -129.30523, 53.56159 ], [ -131.967211467142306, 55.497775580459006 ], [ -134.078062920296077, 58.12306753196691 ], [ -136.628062309954714, 58.212209377670433 ], [ -139.86778704141301, 59.537761542389148 ], [ -147.114373949146653, 60.884656073644635 ], [ -148.224306200127614, 60.672989406977138 ], [ -148.018065558850822, 59.978328965893638 ], [ -151.716392788683294, 59.155821031319931 ], [ -151.409719001247169, 60.72580272077937 ], [ -150.346941494732505, 61.033587551509868 ], [ -150.621110806257036, 61.284424953854398 ], [ -154.019172126257644, 59.350279446034278 ], [ -153.287511359653166, 58.864727688219773 ], [ -154.23249243875847, 58.14637360293051 ], [ -158.433321296197136, 55.994153550838519 ], [ -164.785569221027174, 54.404173082082139 ], [ -157.722770352183915, 57.570000515363063 ], [ -157.041674974576978, 58.918884589261722 ], [ -159.058606126928794, 58.424186102931628 ], [ -160.355271165996498, 59.071123358793614 ], [ -161.968893602526322, 58.671664537177378 ], [ -161.874170702135388, 59.633621324290573 ], [ -162.51805904849212, 59.989723619213862 ], [ -163.818341437820209, 59.798055731843363 ], [ -165.3463877024748, 60.507495632562382 ], [ -166.121379157556021, 61.500019029376233 ], [ -165.734451870770584, 62.074996853271784 ], [ -164.562507901039339, 63.146378485763023 ], [ -160.772506680321101, 63.766108100023246 ], [ -161.518068407212184, 64.40278758407527 ], [ -160.777777676414814, 64.788603827566419 ], [ -164.960829841145141, 64.446945095468834 ], [ -168.110560065767146, 65.669997056736747 ], [ -164.474709642575476, 66.576660061297503 ], [ -163.652511766595637, 66.576660061297503 ], [ -163.788601651036231, 66.077207343196676 ], [ -161.677774421210131, 66.116119696712417 ], [ -166.764440680996046, 68.358876858179656 ], [ -166.204707404626674, 68.883030910916148 ], [ -163.168613654614489, 69.371114813912868 ], [ -161.908897264635556, 70.333329983187639 ], [ -156.580824551398081, 71.35776357694175 ], [ -154.344165208941206, 70.696408596470178 ], [ -143.589446180425227, 70.152514146598321 ], [ -136.50358, 68.89804 ], [ -129.79471, 70.19369 ], [ -129.10773, 69.77927 ], [ -128.13817, 70.48384 ], [ -125.75632, 69.48058 ], [ -124.42483, 70.1584 ], [ -124.28968, 69.39969 ], [ -121.47226, 69.79778 ], [ -113.89794, 68.3989 ], [ -115.30489, 67.90261 ], [ -109.94619, 67.98104 ], [ -108.8802, 67.38144 ], [ -107.79239, 67.88736 ], [ -108.81299, 68.31164 ], [ -108.16721, 68.65392 ], [ -106.15, 68.8 ], [ -101.45433, 67.64689 ], [ -98.4432, 67.78165 ], [ -98.5586, 68.40394 ], [ -97.66948, 68.57864 ], [ -96.11991, 68.23939 ], [ -96.12588, 67.29338 ], [ -95.48943, 68.0907 ], [ -94.685, 68.06383 ], [ -94.23282, 69.06903 ], [ -96.47131, 70.08976 ], [ -96.39115, 71.19482 ], [ -95.2088, 71.92053 ], [ -93.88997, 71.76015 ], [ -91.51964, 70.19129 ], [ -92.40692, 69.69997 ], [ -90.5471, 69.49766 ], [ -90.55151, 68.47499 ], [ -89.21515, 69.25873 ], [ -88.01966, 68.61508 ], [ -88.31749, 67.87338 ], [ -87.35017, 67.19872 ], [ -85.57664, 68.78456 ], [ -85.52197, 69.88211 ], [ -82.62258, 69.65826 ], [ -81.28043, 69.16202 ], [ -81.2202, 68.66567 ], [ -81.96436, 68.13253 ], [ -81.25928, 67.59716 ], [ -81.38653, 67.11078 ], [ -83.34456, 66.41154 ], [ -85.76943, 66.55833 ], [ -87.32324, 64.77563 ], [ -90.70398, 63.61017 ], [ -90.77004, 62.96021 ], [ -91.93342, 62.83508 ], [ -94.24153, 60.89865 ], [ -94.6846, 58.94882 ], [ -93.21502, 58.78212 ], [ -92.29703, 57.08709 ], [ -90.89769, 57.28468 ], [ -85.01181, 55.3026 ], [ -82.27285, 55.14832 ], [ -82.12502, 53.27703 ], [ -79.91289, 51.20842 ], [ -78.60191, 52.56208 ], [ -79.82958, 54.66772 ], [ -78.22874, 55.13645 ], [ -76.54137, 56.53423 ], [ -77.30226, 58.05209 ], [ -78.51688, 58.80458 ], [ -77.33676, 59.85261 ], [ -78.10687, 62.31964 ], [ -73.83988, 62.4438 ], [ -71.37369, 61.13717 ], [ -69.59042, 61.06141 ], [ -69.2879, 58.95736 ], [ -67.64976, 58.21206 ], [ -66.20178, 58.76731 ], [ -64.58352, 60.33558 ], [ -61.39655, 56.96745 ], [ -61.79866, 56.33945 ], [ -57.3332, 54.6265 ], [ -56.93689, 53.78032 ], [ -55.75632, 53.27036 ], [ -55.68338, 52.14664 ], [ -60.03309, 50.24277 ], [ -66.39905, 50.22897 ], [ -71.10458, 46.82171 ], [ -68.65, 48.3 ], [ -65.05626, 49.23278 ], [ -64.17099, 48.74248 ], [ -65.11545, 48.07085 ], [ -64.47219, 46.23849 ], [ -63.17329, 45.73902 ], [ -61.52072, 45.88377 ], [ -60.51815, 47.00793 ], [ -59.80287, 45.9204 ], [ -65.36406, 43.54523 ], [ -66.1234, 43.61867 ], [ -66.16173, 44.46512 ], [ -64.42549, 45.29204 ], [ -67.13741, 45.13753 ], [ -66.96466, 44.809700000000134 ], [ -70.645475633411024, 43.090238348964021 ], [ -70.825, 42.335 ], [ -69.96503, 41.63717000000014 ], [ -73.71, 40.931102351654488 ], [ -71.944999999999879, 40.93 ], [ -73.952325, 40.75075 ], [ -74.90604, 38.93954 ], [ -75.52805, 39.4985 ], [ -75.05673, 38.40412 ], [ -75.94023, 37.21689 ], [ -75.722049999999854, 37.937050000000113 ], [ -76.35, 39.15 ], [ -76.32933, 38.08326 ], [ -76.989997931613516, 38.239991766913363 ], [ -76.30162, 37.917945 ], [ -75.72749, 35.550740000000133 ], [ -81.33629, 31.44049 ], [ -81.31371, 30.03552 ], [ -80.056539284977589, 26.880000000000109 ], [ -80.38103, 25.20616 ], [ -81.17213, 25.201260000000104 ], [ -81.709999999999866, 25.87 ], [ -83.70959, 29.93656 ], [ -85.10882, 29.63615 ], [ -86.4, 30.4 ], [ -89.593831178419805, 30.159994004836847 ], [ -89.40823, 29.15961 ], [ -93.84842, 29.71363 ], [ -97.37, 27.38 ], [ -97.139999999999873, 25.87 ], [ -97.53, 25.84 ], [ -97.140008307670712, 25.869997463478398 ], [ -97.872366706111109, 22.44421173755336 ], [ -95.900884975959968, 18.82802419684873 ], [ -94.425729539756219, 18.144370835843347 ], [ -91.407903408559264, 18.87608327888023 ], [ -90.771869879910867, 19.284120388256781 ], [ -90.278618333684904, 20.999855454995554 ], [ -87.051890224948067, 21.543543199138298 ], [ -86.845907965832623, 20.849864610268355 ], [ -87.837191128271513, 18.25981598558343 ], [ -88.300031094093697, 18.499982204659901 ], [ -88.355428229510565, 16.530774237529627 ], [ -88.930612759135272, 15.887273464415076 ], [ -84.983721889978824, 15.995923163308703 ], [ -83.410381232420377, 15.270902818253774 ], [ -83.808935716471552, 11.103043524617275 ], [ -82.207586432610967, 8.9955752628901 ], [ -80.947301601876759, 8.858503526235907 ], [ -79.573302781884308, 9.611610012241528 ], [ -76.836673957003569, 8.638749497914716 ], [ -75.674600185840063, 9.443248195834599 ], [ -74.906895107711989, 11.083044745320322 ], [ -73.414763963500292, 11.22701528568548 ], [ -71.754090135368642, 12.437303168177309 ], [ -71.13746110704588, 12.112981879113505 ], [ -71.947049933546509, 11.423282375530022 ], [ -71.695644090446535, 9.072263088411248 ], [ -71.03999935574339, 9.859992784052409 ], [ -71.400623338492238, 10.968969021036015 ], [ -70.155298834906517, 11.375481675660041 ], [ -69.943244594996827, 12.162307033736099 ], [ -68.194126552997631, 10.554653225135922 ], [ -66.227864142507997, 10.648626817258688 ], [ -64.89045223657817, 10.077214667191299 ], [ -64.318006557864948, 10.64141795495398 ], [ -61.880946010980196, 10.715625311725104 ], [ -62.730118984616411, 10.420268662960906 ], [ -62.388511928950976, 9.94820445397464 ], [ -60.830596686431718, 9.381339829948942 ], [ -60.671252407459733, 8.580174261911878 ], [ -59.101684129458661, 7.999201971870492 ], [ -57.147436489476888, 5.973149929219161 ], [ -53.958044603070903, 5.756548163267765 ], [ -51.317146369010857, 4.203490505383954 ], [ -50.508875291533656, 1.901563828942457 ], [ -49.974075893745059, 1.736483465986069 ], [ -50.699251268096916, 0.222984117021682 ], [ -48.62056677915632, -0.235489190271821 ], [ -48.584496629416591, -1.237805271005001 ], [ -47.824956427590635, -0.5816179337628 ], [ -44.905703090990414, -1.551739597178134 ], [ -44.581588507655781, -2.691308282078524 ], [ -43.418791266440195, -2.383110039889793 ], [ -39.978665330554037, -2.873054294449041 ], [ -37.2232521225352, -4.820945733258917 ], [ -35.23538896334756, -5.464937432480247 ], [ -34.729993455533034, -7.343220716992967 ], [ -35.128212042774223, -8.996401462442286 ], [ -38.673887091616521, -13.057652276260619 ], [ -39.267339240056401, -17.867746270420483 ], [ -40.944756232250612, -21.937316989837811 ], [ -41.98828426773656, -22.970070489190896 ], [ -44.647811855637812, -23.351959323827842 ], [ -47.648972337420659, -24.885199069927722 ], [ -48.495458136577703, -25.877024834905654 ], [ -48.8884574041574, -28.674115085567884 ], [ -53.806425950726535, -34.396814874002231 ], [ -56.215297003796067, -34.859835707337417 ], [ -58.427074144104388, -33.909454441057576 ], [ -58.495442064026548, -34.431489760070079 ], [ -57.225829637263658, -35.288026625307879 ], [ -56.78828528504836, -36.901571547189334 ], [ -57.749156867083457, -38.183870538079887 ], [ -59.231857062401893, -38.720220228837235 ], [ -62.335956997310127, -38.827707208004334 ], [ -62.145994432205214, -40.676896661136723 ], [ -62.745802781816984, -41.028761488612098 ], [ -65.118035244391578, -41.064314874028909 ], [ -64.978560553635816, -42.05800099056934 ], [ -63.755947842042389, -42.043686618824495 ], [ -63.458059048095876, -42.563138116222405 ], [ -65.181803961839748, -43.495380954767796 ], [ -65.565268927661606, -45.036785577169795 ], [ -67.29379391139247, -45.55189625425519 ], [ -67.580546434180079, -46.30177296324257 ], [ -65.64102657740149, -47.23613453551193 ], [ -65.985088263600787, -48.133289076531135 ], [ -69.138539191347775, -50.732510267947795 ], [ -68.149994879820383, -52.349983406127677 ], [ -69.461284349226673, -52.29195077266391 ], [ -70.8451016913546, -52.899200528525711 ], [ -71.006332160105245, -53.833252042201323 ], [ -74.946763475225168, -52.262753588419002 ], [ -75.608015102831985, -48.673772881871841 ], [ -74.126580980104706, -46.939253431995112 ], [ -75.644395311165454, -46.647643324572073 ], [ -74.692153693323121, -45.763976332381027 ], [ -74.351709357384252, -44.103044122087937 ], [ -73.24035600451522, -44.454960625995604 ], [ -72.717803921179794, -42.383355808278978 ], [ -73.388899909138217, -42.117532240569574 ], [ -73.701335618774877, -43.365776462579774 ], [ -74.331943122032612, -43.224958184584423 ], [ -73.217592536090649, -39.258688653318558 ], [ -73.58806087919109, -37.156284681955981 ], [ -73.166717088499297, -37.123780206044387 ], [ -71.438450486929895, -32.418899428030777 ], [ -71.48989437527645, -28.861442152625923 ], [ -70.905123867461612, -27.640379734001247 ], [ -70.164419725206045, -19.756468194256165 ], [ -70.372572394477714, -18.347975355708869 ], [ -71.462040778271131, -17.363487644116383 ], [ -76.009205084929945, -14.649286390850321 ], [ -79.760578172510051, -7.194340915560084 ], [ -81.249996304026425, -6.136834405139183 ], [ -80.926346808582437, -5.690556735866565 ], [ -81.410942552399462, -4.736764825055459 ], [ -79.770293341780928, -2.65751189535964 ], [ -80.967765469064361, -2.246942640800704 ], [ -80.933659023751716, -1.057454522306358 ], [ -80.090609707342111, 0.768428859862397 ], [ -78.855258755188714, 1.380923773601822 ], [ -78.427610439757331, 2.629555568854215 ], [ -77.12768978545526, 3.849636135265357 ], [ -78.182095709938636, 8.319182440621773 ] ] ], [ [ [ -155.68817, 18.91619 ], [ -155.86108, 20.26721 ], [ -154.80741, 19.50871 ], [ -155.68817, 18.91619 ] ] ], [ [ [ -155.99566, 20.76404 ], [ -156.41445, 20.57241 ], [ -156.71055, 20.92676 ], [ -156.61258, 21.01249 ], [ -155.99566, 20.76404 ] ] ], [ [ [ -157.25027, 21.21958 ], [ -156.78933, 21.06873 ], [ -157.32521, 21.09777 ], [ -157.25027, 21.21958 ] ] ], [ [ [ -158.0252, 21.71696 ], [ -157.65283, 21.32217 ], [ -157.70703, 21.26442 ], [ -158.12667, 21.31244 ], [ -158.0252, 21.71696 ] ] ], [ [ [ -159.80051, 22.06533 ], [ -159.36569, 22.21494 ], [ -159.34512, 21.982 ], [ -159.46372, 21.88299 ], [ -159.80051, 22.06533 ] ] ], [ [ [ -128.358413656255465, 50.770648098343713 ], [ -125.755006673823203, 50.295018215529353 ], [ -123.510001587551187, 48.510010891303409 ], [ -125.655012777338385, 48.825004584338501 ], [ -128.059336304366212, 49.994959011426602 ], [ -128.358413656255465, 50.770648098343713 ] ] ], [ [ [ -133.239664482792705, 53.851080227262344 ], [ -131.749989584003345, 54.120004380909222 ], [ -132.049480347350993, 52.984621487024469 ], [ -131.179042521826602, 52.180432847698285 ], [ -133.239664482792705, 53.851080227262344 ] ] ], [ [ [ -153.22872941792113, 57.968968410872478 ], [ -152.141147223906387, 57.591058661521998 ], [ -154.0050902984581, 56.734676825581076 ], [ -154.516402757770038, 56.992748928446687 ], [ -154.670992804971178, 57.461195787172528 ], [ -153.22872941792113, 57.968968410872478 ] ] ], [ [ [ -165.674429694663644, 60.293606879306253 ], [ -166.192770148767266, 59.75444082298899 ], [ -167.455277066090076, 60.213069159579362 ], [ -165.674429694663644, 60.293606879306253 ] ] ], [ [ [ -80.36215, 62.01649 ], [ -79.26582, 62.158675 ], [ -79.65752, 61.63308 ], [ -80.36215, 62.01649 ] ] ], [ [ [ -81.89825, 62.7108 ], [ -83.06857, 62.15922 ], [ -83.99367, 62.4528 ], [ -83.25048, 62.91409 ], [ -81.89825, 62.7108 ] ] ], [ [ [ -169.529439867205099, 62.976931464277918 ], [ -171.791110602891223, 63.405845852300459 ], [ -171.731656867539442, 63.782515367275934 ], [ -168.68943946030069, 63.297506212000556 ], [ -169.529439867205099, 62.976931464277918 ] ] ], [ [ [ -83.108797573565113, 64.101875718839707 ], [ -85.523404710619047, 63.052379055424055 ], [ -85.866768764982396, 63.637252916103492 ], [ -87.221983201836778, 63.54123810490519 ], [ -86.35275977247133, 64.035833238370699 ], [ -85.883847825854858, 65.738778388117098 ], [ -80.103451300766636, 63.725981350348619 ], [ -80.991019863595724, 63.41124603947496 ], [ -83.108797573565113, 64.101875718839707 ] ] ], [ [ [ -172.555, 64.46079 ], [ -173.89184, 64.2826 ], [ -176.20716, 65.35667 ], [ -178.35993, 65.39052 ], [ -178.90332, 65.74044 ], [ -178.68611, 66.11211 ], [ -179.88377, 65.87456 ], [ -179.43268, 65.40411 ], [ -180.0, 64.979708702198394 ], [ -180.0, 68.963636363636354 ], [ -174.92825, 67.20589 ], [ -175.01425, 66.58435 ], [ -174.33983, 66.33556 ], [ -174.57182, 67.06219 ], [ -171.85731, 66.91308 ], [ -169.89958, 65.97724 ], [ -172.53025, 65.43791 ], [ -172.555, 64.46079 ] ] ], [ [ [ -98.218261203800552, 70.143540358321772 ], [ -95.647681203800545, 69.107690358321776 ], [ -96.269521203800551, 68.757040358321774 ], [ -99.797401203800547, 69.400030358321771 ], [ -98.218261203800552, 70.143540358321772 ] ] ], [ [ [ -102.09329, 69.119620000000111 ], [ -113.3132, 68.53554 ], [ -117.34, 69.96 ], [ -112.4161, 70.36638 ], [ -117.9048, 70.540560000000141 ], [ -118.43238, 70.9092 ], [ -116.11311, 71.30918 ], [ -119.40199, 71.55859 ], [ -117.86642, 72.70594 ], [ -115.18909, 73.314590000000123 ], [ -114.16717, 73.12145 ], [ -114.66634, 72.65277 ], [ -112.44102, 72.955400000000111 ], [ -111.05039, 72.4504 ], [ -109.92035, 72.96113 ], [ -108.18835, 71.65089 ], [ -107.68599, 72.06548 ], [ -108.39639, 73.08953 ], [ -107.51645, 73.23598 ], [ -105.40246, 72.67259 ], [ -104.464759999999899, 70.99297 ], [ -100.98078, 70.02432 ], [ -101.08929, 69.584470000000124 ], [ -102.73116, 69.50402 ], [ -102.09329, 69.119620000000111 ] ] ], [ [ [ -180.0, 70.832199208546726 ], [ -179.871875, 71.55762 ], [ -177.577945, 71.26948 ], [ -178.69378, 70.89302 ], [ -180.0, 70.832199208546726 ] ] ], [ [ [ -96.72, 71.66 ], [ -99.32286, 71.35639 ], [ -102.48, 72.83 ], [ -100.43836, 72.70588 ], [ -101.54, 73.36 ], [ -100.35642, 73.84389 ], [ -97.38, 73.76 ], [ -97.12, 73.47 ], [ -98.05359, 72.99052 ], [ -96.54, 72.56 ], [ -96.72, 71.66 ] ] ], [ [ [ -123.09219, 70.90164 ], [ -125.928948737473377, 71.868688463011381 ], [ -123.94, 73.680000000000121 ], [ -124.91775, 74.292750000000126 ], [ -117.55564, 74.18577 ], [ -115.51081, 73.47519 ], [ -119.22, 72.52 ], [ -120.46, 71.383601793087564 ], [ -123.09219, 70.90164 ] ] ], [ [ [ -95.495793423224043, 73.862416897264168 ], [ -94.503657599652371, 74.134906724739224 ], [ -90.509792853542635, 73.856732489712059 ], [ -94.269046597047264, 72.024596259235992 ], [ -95.409855516322665, 72.061880805134578 ], [ -96.033745083382442, 72.940276801231832 ], [ -95.495793423224043, 73.862416897264168 ] ] ], [ [ [ -105.38, 72.76 ], [ -106.94, 73.46 ], [ -104.5, 73.42 ], [ -105.38, 72.76 ] ] ], [ [ [ -93.612755906940464, 74.97999726022438 ], [ -95.608680589565637, 74.666863918751758 ], [ -96.820932176484547, 74.927623196096576 ], [ -94.85081987178917, 75.647217515760886 ], [ -93.612755906940464, 74.97999726022438 ] ] ], [ [ [ -113.87135, 74.72029 ], [ -111.79421, 75.1625 ], [ -117.7104, 75.2222 ], [ -115.40487, 76.47887 ], [ -109.0671, 75.47321 ], [ -110.49726, 76.42982 ], [ -109.5811, 76.79417 ], [ -108.54859, 76.67832 ], [ -107.81943, 75.84552 ], [ -105.881, 75.9694 ], [ -105.70498, 75.47951 ], [ -106.31347, 75.00527 ], [ -112.22307, 74.41696 ], [ -113.87135, 74.72029 ] ] ], [ [ [ -96.74512285031237, 77.161388658345075 ], [ -91.6050231595366, 76.778517971494594 ], [ -90.741845872749295, 76.449597479956807 ], [ -90.969661424508018, 76.074013170059473 ], [ -89.187082892599847, 75.610165513807615 ], [ -81.12853084992436, 75.713983466281988 ], [ -79.833932868148366, 74.923127346487163 ], [ -88.150350307960281, 74.392307033985034 ], [ -92.422440965529461, 74.837757880340988 ], [ -92.889905972041745, 75.882655341282671 ], [ -97.121378953829506, 76.751077785947601 ], [ -96.74512285031237, 77.161388658345075 ] ] ], [ [ [ -102.56552, 76.3366 ], [ -98.5, 76.72 ], [ -97.704415, 75.74344 ], [ -98.16, 75.0 ], [ -99.80874, 74.89744 ], [ -100.88366, 75.05736 ], [ -100.86292, 75.64075 ], [ -102.50209, 75.5638 ], [ -102.56552, 76.3366 ] ] ], [ [ [ -116.335813361458449, 76.876961575010611 ], [ -121.499995077126485, 75.900018622532755 ], [ -122.854925293603259, 76.116542873835684 ], [ -119.103938971821094, 77.512219957174622 ], [ -116.198586595507379, 77.645286770326194 ], [ -116.335813361458449, 76.876961575010611 ] ] ], [ [ [ -94.295608283245286, 77.491342678528682 ], [ -96.436304490936138, 77.83462921824362 ], [ -93.720656297565895, 77.634331366680314 ], [ -94.295608283245286, 77.491342678528682 ] ] ], [ [ [ -110.186938035913016, 77.697014879050343 ], [ -113.534278937619121, 77.732206529441115 ], [ -109.854451870547109, 77.996324774884883 ], [ -110.186938035913016, 77.697014879050343 ] ] ], [ [ [ -95.559277920294605, 78.418314520980331 ], [ -97.309842902397989, 77.850597235821809 ], [ -98.631984422585532, 78.871930243638374 ], [ -96.754398769908761, 78.765812689927017 ], [ -95.559277920294605, 78.418314520980331 ] ] ], [ [ [ -104.210429450277132, 78.677420152491763 ], [ -105.492289191493199, 79.301593939929163 ], [ -100.8251580472688, 78.800461737778718 ], [ -99.670939093813644, 77.907544664207435 ], [ -105.176132778731514, 78.380332343245797 ], [ -104.210429450277132, 78.677420152491763 ] ] ], [ [ [ -109.6631457182026, 78.601972561345647 ], [ -112.542091437615156, 78.407901719873493 ], [ -111.500010342233395, 78.849993598130496 ], [ -109.6631457182026, 78.601972561345647 ] ] ], [ [ [ -87.81, 80.32 ], [ -85.81435, 79.3369 ], [ -90.80436, 78.21533 ], [ -92.87669, 78.34333 ], [ -93.95116, 78.75099 ], [ -93.14524, 79.3801 ], [ -94.974, 79.37248 ], [ -96.70972, 80.15777 ], [ -94.29843, 80.97727 ], [ -94.73542, 81.20646 ], [ -92.40984, 81.25739 ], [ -87.81, 80.32 ] ] ], [ [ [ -60.159655727770193, -81.000326837079285 ], [ -64.48812537296979, -80.92193368929253 ], [ -66.29003089055513, -80.255772800617976 ], [ -61.883245612217181, -80.392870375488314 ], [ -60.610119188058441, -79.628679294756097 ], [ -59.572094692611586, -80.040178725096283 ], [ -60.159655727770193, -81.000326837079285 ] ] ], [ [ [ -43.333266770997142, -80.026122735512899 ], [ -50.482106899606457, -81.025441583173134 ], [ -54.16425940613162, -80.633527520671578 ], [ -50.991326463410587, -79.614623305172699 ], [ -48.660616014182523, -78.047017924154474 ], [ -46.662856818210983, -77.831475525065059 ], [ -43.920827806155742, -78.478102722333276 ], [ -43.333266770997142, -80.026122735512899 ] ] ], [ [ [ -70.253251512315771, -68.878740336227168 ], [ -68.451345994730431, -70.955822855766726 ], [ -68.784297247986984, -72.170735778948668 ], [ -72.388134121373781, -72.484256693663468 ], [ -71.898499925408288, -72.092342631161898 ], [ -74.953894822881452, -72.072757263323282 ], [ -75.012625088181167, -71.661257832983097 ], [ -73.915818651002297, -71.269343770481527 ], [ -72.07471655952358, -71.190950622694757 ], [ -71.741791144483187, -69.505782165656754 ], [ -70.253251512315771, -68.878740336227168 ] ] ], [ [ [ -73.2852, -53.95752 ], [ -74.66253, -52.83749 ], [ -71.10773, -54.07433 ], [ -69.34565, -52.5183 ], [ -68.634010227583232, -52.636370458874488 ], [ -67.75, -53.85 ], [ -65.05, -54.7 ], [ -65.5, -55.2 ], [ -66.95992, -54.89681 ], [ -68.639990810811867, -55.58001799908692 ], [ -73.2852, -53.95752 ] ] ], [ [ [ -61.2, -51.85 ], [ -58.55, -51.1 ], [ -57.75, -51.55 ], [ -59.4, -52.2 ], [ -61.2, -51.85 ] ] ], [ [ [ -7.518941209330436, 4.338288479017308 ], [ -12.428098924193819, 7.26294200279203 ], [ -14.839553798877944, 10.876571560098141 ], [ -16.613838263403281, 12.170911159712702 ], [ -16.713728807023472, 13.594958604379855 ], [ -17.625042690490659, 14.729540513564073 ], [ -16.463098110407884, 16.13503611903846 ], [ -16.14634741867485, 18.108481553616656 ], [ -16.277838100641517, 20.092520656814699 ], [ -17.063423224342571, 20.999752102130827 ], [ -14.439939947964831, 26.254418443297652 ], [ -9.564811163765683, 29.933573716749891 ], [ -9.814718390329176, 31.17773550060906 ], [ -9.300692918321886, 32.564679266890664 ], [ -6.912544114601417, 34.110476386037476 ], [ -5.92999426921989, 35.75998810479399 ], [ -2.169913702798624, 35.16839630791668 ], [ 1.466918572606545, 36.605647081034405 ], [ 9.509993523810607, 37.349994411766545 ], [ 10.210002475636317, 37.230001735984814 ], [ 10.180650262094531, 36.724037787415085 ], [ 11.100025668999251, 36.899996039368915 ], [ 10.600004510143094, 36.410000108377375 ], [ 10.939518670300687, 35.698984076473494 ], [ 10.339658644256616, 33.785741685515319 ], [ 15.24563, 32.26508 ], [ 15.71394, 31.37626 ], [ 19.08641, 30.26639 ], [ 20.05335, 30.98576 ], [ 20.13397, 32.2382 ], [ 21.54298, 32.8432 ], [ 28.91353, 30.87005 ], [ 30.97693, 31.55586 ], [ 31.96041, 30.9336 ], [ 33.7734, 30.96746 ], [ 34.556371697738911, 31.548823960896996 ], [ 35.998402540843642, 34.644914048800004 ], [ 36.160821567536999, 36.650605577128331 ], [ 34.714553256984345, 36.795532131490901 ], [ 32.509158156064075, 36.107563788389186 ], [ 31.699595167779567, 36.64427521417258 ], [ 29.699975620245539, 36.144357408180994 ], [ 27.641186557737317, 36.658822129862742 ], [ 26.318218214633045, 38.208133246405396 ], [ 26.804700148228733, 38.985760199533516 ], [ 26.170785353304328, 39.463612168936464 ], [ 27.280019972449391, 40.420013739578309 ], [ 28.81997765474722, 40.460011298172212 ], [ 29.240003696415584, 41.219990749672668 ], [ 31.145933872204441, 41.087621568357022 ], [ 33.513282911927462, 42.018960069337311 ], [ 35.167703891751785, 42.040224921225416 ], [ 38.347664829264517, 40.948586127275732 ], [ 41.554084100110657, 41.535656236327569 ], [ 41.453470086438386, 42.64512339941794 ], [ 36.675460000000101, 45.244690000000105 ], [ 38.23295, 46.24087 ], [ 37.67372, 46.63657 ], [ 39.1212, 47.26336 ], [ 34.96234174982385, 46.273196519549742 ], [ 35.02078779474607, 45.651218980484657 ], [ 36.529997999830186, 45.46998973243717 ], [ 36.334712762199274, 45.113215643894023 ], [ 33.882511020652885, 44.361478583344194 ], [ 33.326420932760129, 44.564877020844904 ], [ 33.546924269349404, 45.034770819674861 ], [ 32.454174432105503, 45.327466132176085 ], [ 33.588162062318418, 45.851568508480227 ], [ 33.29856733575474, 46.080598456397809 ], [ 30.748748813609211, 46.583100084004116 ], [ 29.626543409958771, 45.035390936862399 ], [ 28.8378577003202, 44.913873806328056 ], [ 27.673897739378049, 42.577892361006221 ], [ 28.806438429486743, 41.054962063148558 ], [ 27.619017368284091, 40.999823309893138 ], [ 26.35800906749779, 40.151993923496505 ], [ 26.056942172965339, 40.824123440100763 ], [ 24.925848422960939, 40.947061672523205 ], [ 23.714811232200759, 40.687129218095095 ], [ 24.40799889496401, 40.124992987624069 ], [ 23.899967889102584, 39.962005520175524 ], [ 22.626298862404724, 40.25656118423916 ], [ 24.040011020613576, 37.655014553369426 ], [ 23.115002882589124, 37.920011298162194 ], [ 23.409971958111043, 37.409990749657368 ], [ 22.774971958108608, 37.305010077456529 ], [ 23.15422529469862, 36.422505804992056 ], [ 22.490028110451078, 36.410000108377403 ], [ 21.670026482843639, 36.844986477194198 ], [ 21.120034213961333, 38.310323391262727 ], [ 19.406081984136733, 40.250773423822466 ], [ 19.540027296637106, 41.719986070312757 ], [ 16.015384555737683, 43.507215481127218 ], [ 14.901602410550879, 45.076060289076111 ], [ 13.952254672917036, 44.802123521496867 ], [ 13.937630242578308, 45.591015936864622 ], [ 13.141606479554296, 45.736691799495418 ], [ 12.328581170306251, 45.381778062514826 ], [ 12.589237094786455, 44.091365871754462 ], [ 15.142569614327925, 41.955139675456849 ], [ 15.926191033601896, 41.961315009115715 ], [ 15.889345737377797, 41.541082261718216 ], [ 18.480247023195432, 40.168866278639811 ], [ 18.293385044028042, 39.810774441073264 ], [ 16.869595981522338, 40.44223460546381 ], [ 16.448743116937322, 39.795400702466438 ], [ 17.17148969897147, 39.424699815420681 ], [ 17.052840610429314, 38.902871202137348 ], [ 16.100960727613, 37.985898749334197 ], [ 15.684086948314473, 37.908849188787016 ], [ 16.109332309644287, 38.964547024077703 ], [ 15.413612501698793, 40.048356838535156 ], [ 12.106682570044939, 41.704534817057407 ], [ 10.511947869517741, 42.93146251074721 ], [ 10.200028924203991, 43.920006822274601 ], [ 8.888946160526871, 44.366336167979512 ], [ 6.52924523278304, 43.128892320318315 ], [ 3.100410597352663, 43.075200507167054 ], [ 3.039484083680549, 41.892120266276905 ], [ 0.810524529635188, 41.014731960609339 ], [ -0.278711310212941, 39.30997813573272 ], [ 0.111290724293838, 38.73851430923304 ], [ -2.146452602538119, 36.674144192037289 ], [ -4.368900926114719, 36.677839056946155 ], [ -5.377159796561457, 35.946850083961465 ], [ -6.520190802425404, 36.942913316387319 ], [ -8.898856980820327, 36.868809312480778 ], [ -8.83999752443988, 38.266243394517616 ], [ -9.526570603869715, 38.737429104154913 ], [ -8.768684047877102, 40.760638943030187 ], [ -9.392883673530648, 43.026624660812701 ], [ -7.97818966310831, 43.748337714200993 ], [ -1.901351284177764, 43.422802028978339 ], [ -1.384225226232985, 44.022610378590116 ], [ -1.193797573237418, 46.014917710954862 ], [ -2.963276129559603, 47.570326646507951 ], [ -4.491554938159481, 47.954954332056374 ], [ -4.592349819344776, 48.68416046812699 ], [ -1.616510789384961, 48.644421291694542 ], [ -1.933494025063311, 49.776341864615745 ], [ -0.98946895995536, 49.347375800160911 ], [ 1.338761020522696, 50.127173163445264 ], [ 1.6390010921385, 50.9466063502975 ], [ 3.830288527043137, 51.620544542031951 ], [ 4.705997348661185, 53.091798407597764 ], [ 8.121706170289485, 53.527792466844289 ], [ 8.800734490604668, 54.020785630908904 ], [ 8.120310906617533, 55.517722683323598 ], [ 8.543437534223415, 57.110002753316948 ], [ 10.580005730846125, 57.73001658795485 ], [ 10.250000034230226, 56.890016181050441 ], [ 10.912181837618306, 56.458621324277885 ], [ 9.649984978889279, 55.469999498102055 ], [ 9.9395797054529, 54.596641954153256 ], [ 10.93946699386845, 54.00869334575259 ], [ 12.518440382546714, 54.470370591847995 ], [ 14.119686313542559, 53.75702912049104 ], [ 17.622831658608675, 54.851535956432912 ], [ 19.660640089606403, 54.426083889373928 ], [ 21.268448927503467, 55.190481675835315 ], [ 21.090423618257972, 56.783872789122938 ], [ 21.581866489353672, 57.411870632549935 ], [ 22.524341261492879, 57.753374335350763 ], [ 23.318452996522097, 57.006236477274868 ], [ 24.120729607853431, 57.025692654032767 ], [ 24.428927850042161, 58.383413397853289 ], [ 23.426560092876684, 58.612753404364625 ], [ 23.339795363058645, 59.187240302153384 ], [ 27.981126857000987, 59.475373334325269 ], [ 29.1177, 60.028050000000121 ], [ 28.070001921525666, 60.503519127968232 ], [ 22.869694858499457, 59.846373196036225 ], [ 21.322244093519316, 60.720169989659524 ], [ 21.544866163832694, 61.705329494871791 ], [ 21.059211053153689, 62.60739329695874 ], [ 21.536029493910803, 63.18973501245587 ], [ 25.398067661243942, 65.111426500093742 ], [ 23.903378533633802, 66.006927395279618 ], [ 22.18317345550193, 65.723740546320172 ], [ 21.21351687997722, 65.026005357515274 ], [ 21.369631381930958, 64.413587958424287 ], [ 17.847779168375212, 62.74940013289681 ], [ 17.119554884518124, 61.341165676510968 ], [ 18.787721795332089, 60.081914374422595 ], [ 17.86922488777634, 58.953766181058697 ], [ 16.829185011470088, 58.719826972073392 ], [ 15.879785597403783, 56.104301866268663 ], [ 14.666681349352075, 56.200885118222175 ], [ 14.100721062891465, 55.407781073622651 ], [ 12.942910597392057, 55.361737372450577 ], [ 10.356556837616067, 59.469807033925356 ], [ 8.382000359743586, 58.313288479233215 ], [ 7.048748406613271, 58.078884182357285 ], [ 5.665835402050419, 58.588155422593701 ], [ 4.992078077828978, 61.970998033284317 ], [ 10.527709181366758, 64.486038316497499 ], [ 14.761145867581604, 67.810641587995164 ], [ 19.184028354578459, 69.817444159617779 ], [ 23.023742303161526, 70.202071845166202 ], [ 24.546543409938465, 71.030496731237221 ], [ 28.165547316202943, 71.185474351680554 ], [ 31.293418409965454, 70.453787746859902 ], [ 30.005435011522792, 70.186258856884891 ], [ 31.101042202597625, 69.558101088056219 ], [ 32.132720000000177, 69.905950000000189 ], [ 36.51396, 69.06342 ], [ 41.05987, 67.45713000000012 ], [ 41.125950000000103, 66.79158 ], [ 38.38295, 65.999530000000107 ], [ 33.18444, 66.63253 ], [ 34.814770000000124, 65.900150000000167 ], [ 34.94391, 64.41437000000019 ], [ 37.01273, 63.849830000000111 ], [ 36.539579035089787, 64.76446 ], [ 37.17604, 65.143220000000156 ], [ 39.59345, 64.520790000000204 ], [ 40.4356, 64.76446 ], [ 39.762600000000191, 65.49682 ], [ 42.093090000000132, 66.47623 ], [ 43.949750000000108, 66.06908 ], [ 44.53226, 66.756340000000137 ], [ 43.69839, 67.35245 ], [ 44.187950000000171, 67.950510000000122 ], [ 43.45282, 68.57079 ], [ 46.250000000000114, 68.25 ], [ 46.82134, 67.68997 ], [ 45.55517, 67.56652 ], [ 45.562020000000132, 67.010050000000149 ], [ 46.349150000000122, 66.667670000000101 ], [ 53.717430000000149, 68.857380000000148 ], [ 54.47171, 68.80815 ], [ 53.48582000000016, 68.20131 ], [ 58.802000000000135, 68.88082 ], [ 59.941420000000107, 68.27844 ], [ 61.077840000000208, 68.94069 ], [ 60.03, 69.52 ], [ 60.55, 69.85 ], [ 68.512160000000165, 68.092330000000118 ], [ 69.180680000000109, 68.615630000000124 ], [ 66.930080000000146, 69.454610000000116 ], [ 67.25976, 69.92873 ], [ 66.69466, 71.028970000000186 ], [ 69.94, 73.04 ], [ 72.58754, 72.776290000000131 ], [ 72.79603, 72.22006 ], [ 71.84811, 71.40898 ], [ 72.79188, 70.39114 ], [ 72.56470000000013, 69.02085 ], [ 73.66787, 68.4079 ], [ 71.28, 66.320000000000107 ], [ 72.42301, 66.17267000000021 ], [ 75.052, 67.760470000000112 ], [ 74.469260000000133, 68.32899 ], [ 74.93584, 68.98918 ], [ 73.84236, 69.07146 ], [ 73.60187000000019, 69.62763 ], [ 74.3998, 70.63175 ], [ 73.1011, 71.447170000000199 ], [ 74.89082000000019, 72.121190000000126 ], [ 74.65926, 72.83227 ], [ 75.683510000000126, 72.300560000000132 ], [ 75.28898, 71.3355600000001 ], [ 76.35911, 71.152870000000178 ], [ 75.903130000000147, 71.87401 ], [ 77.57665, 72.26717 ], [ 81.5, 71.75 ], [ 80.61071, 72.582850000000121 ], [ 80.51109, 73.6482 ], [ 86.822300000000155, 73.93688 ], [ 86.00956, 74.459670000000187 ], [ 87.166820000000143, 75.11643 ], [ 100.759670000000142, 76.43028 ], [ 101.990840000000105, 77.287540000000149 ], [ 104.351600000000133, 77.69792 ], [ 106.066640000000177, 77.37389 ], [ 104.705000000000155, 77.1274 ], [ 106.97013, 76.97419 ], [ 107.240000000000123, 76.48 ], [ 111.077260000000194, 76.71 ], [ 114.13417, 75.84764 ], [ 113.88539, 75.327790000000164 ], [ 109.4, 74.18 ], [ 113.019540000000234, 73.976930000000152 ], [ 113.529580000000237, 73.335050000000138 ], [ 115.56782, 73.75285 ], [ 123.20066, 72.97122 ], [ 123.257770000000164, 73.73503 ], [ 126.97644, 73.565490000000125 ], [ 128.59126, 73.03871 ], [ 129.05157, 72.39872 ], [ 128.46, 71.98 ], [ 131.288580000000252, 70.786990000000117 ], [ 132.253500000000145, 71.836300000000108 ], [ 133.857660000000237, 71.386420000000101 ], [ 139.86983, 71.487830000000145 ], [ 139.14791, 72.416190000000142 ], [ 140.46817, 72.849410000000148 ], [ 149.5, 72.2 ], [ 152.96890000000019, 70.84222 ], [ 158.99779, 70.86672 ], [ 159.830310000000168, 70.45324 ], [ 159.70866, 69.72198 ], [ 160.940530000000308, 69.437280000000101 ], [ 167.83567, 69.582690000000127 ], [ 169.577630000000113, 68.6938 ], [ 170.816880000000197, 69.01363 ], [ 170.008200000000102, 69.65276 ], [ 170.453450000000203, 70.09703 ], [ 175.724030000000198, 69.877250000000174 ], [ 180.0, 68.96363636363651 ], [ 180.0, 64.979708702198479 ], [ 177.41128, 64.60821 ], [ 179.37034, 62.982620000000111 ], [ 179.22825, 62.304100000000176 ], [ 177.3643, 62.5219 ], [ 173.68013, 61.65261 ], [ 170.330850000000282, 59.88177 ], [ 168.90046, 60.57355 ], [ 166.294980000000237, 59.788550000000157 ], [ 165.840000000000146, 60.16 ], [ 163.53929, 59.86871 ], [ 162.01733, 58.24328 ], [ 163.19191, 57.615030000000104 ], [ 163.057940000000144, 56.159240000000125 ], [ 162.129580000000146, 56.12219 ], [ 161.70146, 55.285680000000184 ], [ 162.11749, 54.85514 ], [ 160.368770000000268, 54.34433 ], [ 160.021730000000161, 53.20257 ], [ 158.530940000000101, 52.958680000000186 ], [ 158.23118, 51.94269 ], [ 156.789790000000266, 51.01105 ], [ 155.43366, 55.381030000000123 ], [ 155.914420000000291, 56.767920000000174 ], [ 156.81035, 57.83204 ], [ 158.364330000000109, 58.05575 ], [ 163.66969, 61.140900000000101 ], [ 164.47355, 62.55061 ], [ 163.258420000000115, 62.466270000000122 ], [ 162.65791, 61.6425 ], [ 160.12148, 60.54423 ], [ 159.30232, 61.773960000000102 ], [ 156.72068, 61.43442 ], [ 154.218060000000264, 59.758180000000152 ], [ 155.04375, 59.14495 ], [ 151.26573000000019, 58.78089 ], [ 151.33815, 59.50396 ], [ 149.78371, 59.655730000000176 ], [ 148.54481, 59.16448 ], [ 142.19782, 59.039980000000128 ], [ 135.12619, 54.72959 ], [ 136.70171, 54.603550000000155 ], [ 138.1647, 53.755010000000198 ], [ 139.90151, 54.189680000000124 ], [ 141.34531, 53.089570000000151 ], [ 141.37923, 52.23877 ], [ 140.59742000000017, 51.239670000000103 ], [ 140.061930000000189, 48.44671000000011 ], [ 138.21971, 46.30795 ], [ 134.86939000000018, 43.39821 ], [ 133.536870000000249, 42.81147 ], [ 132.278070000000184, 43.284560000000113 ], [ 129.965948521037262, 41.94136790625106 ], [ 129.705189243692473, 40.882827867184332 ], [ 127.533435500194173, 39.756850083976701 ], [ 127.385434198110275, 39.213472398427655 ], [ 129.460449660358165, 36.784189154602828 ], [ 129.091376580929591, 35.082484239231434 ], [ 126.485747511908755, 34.39004588473648 ], [ 126.117397902532289, 36.725484727519259 ], [ 126.860143263863392, 36.893924058574626 ], [ 126.174758742376241, 37.74968577732804 ], [ 124.71216067921938, 38.10834605564979 ], [ 125.321115757346817, 39.55138458918421 ], [ 124.265624627785314, 39.928493353834156 ], [ 121.054554478032856, 38.897471014962846 ], [ 122.168595005381064, 40.422442531896024 ], [ 121.640358514493528, 40.946389878903332 ], [ 119.023463983233057, 39.252333075511146 ], [ 118.042748651197911, 39.204273993479703 ], [ 117.532702264477109, 38.737635809884083 ], [ 118.911636183753444, 37.448463853498708 ], [ 119.702802362142052, 37.156388658185051 ], [ 120.823457472823605, 37.870427761378011 ], [ 122.35793745329849, 37.454484157860719 ], [ 122.5199947449658, 36.93061432550185 ], [ 121.104163853033072, 36.651329047180425 ], [ 119.151208123858595, 34.909859117160437 ], [ 120.227524855633732, 34.360331936168649 ], [ 121.90814578663003, 31.692174384074647 ], [ 121.891919386890379, 30.949351508095106 ], [ 121.264257440273283, 30.676267401648701 ], [ 122.0921138855891, 29.832520453403149 ], [ 121.684438511238511, 28.225512600206617 ], [ 121.125661248866493, 28.135673122667185 ], [ 118.656871372554519, 24.547390855400241 ], [ 115.890735304835118, 22.78287323657807 ], [ 110.785465529424073, 21.397143866455338 ], [ 110.444039341271676, 20.341032619706329 ], [ 109.889861281373612, 20.282457383703488 ], [ 109.864488153118316, 21.395050970947523 ], [ 108.522812941524407, 21.715212307211814 ], [ 105.881682163519031, 19.752050482659698 ], [ 105.662005649846307, 19.05816518806057 ], [ 108.877106561317476, 15.27669057867044 ], [ 109.335269810017223, 13.426028347217724 ], [ 109.200135939573983, 11.666859239137764 ], [ 105.15826378786511, 8.599759629750494 ], [ 105.076201613385621, 9.918490505406808 ], [ 103.497279901139706, 10.632555446815928 ], [ 102.584932489026698, 12.186594956913282 ], [ 100.831809523524868, 12.627084865769206 ], [ 100.978467238369205, 13.412721665902566 ], [ 100.097797479251113, 13.406856390837433 ], [ 99.222398716226763, 9.239255479362427 ], [ 99.873831821698133, 9.20786204674512 ], [ 100.459274123132758, 7.429572658717177 ], [ 102.96170535686673, 5.524495144061106 ], [ 104.228811476663481, 1.293048000489492 ], [ 103.519707472754391, 1.226333726400682 ], [ 101.390638462329193, 2.760813706875581 ], [ 100.085756870527106, 6.464489447450291 ], [ 98.503786248775995, 8.382305202666288 ], [ 98.339661899817003, 7.794511623562386 ], [ 98.764545526120784, 11.441291612183749 ], [ 97.164539829499802, 16.92873444260934 ], [ 95.369352248112406, 15.714389960182601 ], [ 94.188804152404543, 16.037936102762018 ], [ 94.324816522196755, 18.2135139022499 ], [ 91.41708702999766, 22.765019029221222 ], [ 90.496006300827275, 22.805016587815128 ], [ 90.272970819055558, 21.836367702720111 ], [ 86.975704380240273, 21.495561631755209 ], [ 86.499351027373791, 20.151638495356607 ], [ 85.060265740909699, 19.4785788029711 ], [ 82.191241896497189, 16.556664130107848 ], [ 80.324895867843878, 15.89918488205835 ], [ 79.857999302086824, 10.35727509199711 ], [ 77.539897902337941, 7.965534776232332 ], [ 76.592978957021671, 8.89927623131419 ], [ 73.534199253233396, 15.990652167214961 ], [ 72.630533481745402, 21.356009426351008 ], [ 70.470458611945105, 20.877330634031384 ], [ 69.164130080038831, 22.0892980005727 ], [ 69.644927606082405, 22.450774644454338 ], [ 69.349596795534353, 22.84317963306269 ], [ 67.443666619745471, 23.944843654876991 ], [ 66.372827589793275, 25.425140896093851 ], [ 61.49736290878419, 25.078237006118499 ], [ 57.397251417882387, 25.739902045183641 ], [ 56.492138706290206, 27.143304755150197 ], [ 54.715089552637266, 26.480657863871514 ], [ 51.520762566947418, 27.865689602158298 ], [ 50.115008579311585, 30.147772528599717 ], [ 47.974519077349896, 29.975819200148504 ], [ 48.807594842327177, 27.689627997339883 ], [ 50.152422316290881, 26.689663194275997 ], [ 50.810108270069577, 24.754742539971378 ], [ 51.013351678273494, 26.006991685484195 ], [ 51.589078810437258, 25.801112779233382 ], [ 51.794389275932872, 24.019826158132506 ], [ 54.008000929587581, 24.121757920828216 ], [ 56.362017449779273, 26.395934353128979 ], [ 56.845140415276006, 24.241673081961505 ], [ 58.72921146020542, 23.565667832935361 ], [ 59.806148309168066, 22.310524807214193 ], [ 57.826372511634105, 20.24300242764863 ], [ 57.694390903560645, 18.94470958096376 ], [ 55.274900343655133, 17.22835439703762 ], [ 52.385205926325881, 16.382411200419654 ], [ 52.1681649107, 15.597420355689948 ], [ 48.679230584514158, 14.00320241948566 ], [ 43.482958611837127, 12.636800035040084 ], [ 42.60487267433362, 15.213335272680595 ], [ 42.649572788266084, 16.774635321514964 ], [ 39.139399448408284, 21.291904812092934 ], [ 38.492772251140082, 23.688451036060854 ], [ 37.483634881344386, 24.285494696545015 ], [ 35.130186801907882, 28.063351955674719 ], [ 34.632336053207979, 28.058546047471566 ], [ 34.956037225084259, 29.356554673778845 ], [ 34.92260257339143, 29.501326198844524 ], [ 34.823243288783814, 29.761080761718219 ], [ 33.92136, 27.6487 ], [ 32.42323, 29.85108 ], [ 35.69241, 23.92671 ], [ 35.52598, 23.10244 ], [ 36.86623, 22.0 ], [ 37.481790000000103, 18.61409 ], [ 38.410089959473225, 17.998307399970315 ], [ 39.26611006038803, 15.922723496967251 ], [ 43.317852410664671, 12.390148423711025 ], [ 42.715873650896526, 11.735640570518342 ], [ 44.614259067570856, 10.442205308468942 ], [ 51.1112, 12.02464 ], [ 51.04531, 10.6409 ], [ 47.74079, 4.2194 ], [ 40.26304, -2.57309 ], [ 39.20222, -4.67677 ], [ 38.74054, -5.90895 ], [ 39.44, -6.839999999999861 ], [ 39.18652, -8.48551 ], [ 40.478387485523029, -10.765440769089993 ], [ 40.775475294768995, -14.691764418194241 ], [ 40.089263950365222, -16.10077402106446 ], [ 34.786383497870048, -19.784011732667736 ], [ 35.562545536369086, -22.09 ], [ 35.458745558419622, -24.122609958596549 ], [ 32.574632195777866, -25.727318210556092 ], [ 32.915955031065693, -26.215867201443466 ], [ 32.462132602678452, -28.301011244420557 ], [ 30.055716180142781, -31.140269463832958 ], [ 28.2197558936771, -32.771952813448856 ], [ 25.780628289500697, -33.944646091448341 ], [ 22.574157342222236, -33.864082533505311 ], [ 19.616405063564571, -34.819166355123713 ], [ 18.377410922934615, -34.136520684548067 ], [ 17.925190463948439, -32.611290785453427 ], [ 18.221761508871481, -31.661632989225669 ], [ 15.210472446359461, -27.090955905874047 ], [ 14.257714064194175, -22.111208184499958 ], [ 11.794918654028066, -18.069129327061916 ], [ 11.640096062881611, -16.673142185129251 ], [ 12.500095249082991, -13.54769988368445 ], [ 13.633721144269799, -12.03864470789717 ], [ 13.686379428775238, -10.73107594161589 ], [ 12.875369500386569, -9.166933689005468 ], [ 13.236432732809874, -8.562629489784307 ], [ 11.91496300624209, -5.037986748884791 ], [ 8.79799563969317, -1.111301364754496 ], [ 9.795195753629457, 3.073404445809117 ], [ 8.500287713259695, 4.771982937026849 ], [ 5.898172641634687, 4.262453314628985 ], [ 4.325607130560684, 6.270651149923467 ], [ 1.865240512712319, 6.142157701029731 ], [ -1.964706590167594, 4.710462144383371 ], [ -4.649917364917911, 5.168263658057086 ], [ -7.518941209330436, 4.338288479017308 ] ], [ [ 50.392821079312682, 40.256561184239118 ], [ 49.569202101444795, 40.176100979160665 ], [ 48.856532423707591, 38.815486355131782 ], [ 49.199612257693339, 37.582874253889884 ], [ 50.842354363819709, 36.872814235983398 ], [ 53.825789829326418, 36.965030829408235 ], [ 53.880928582581845, 38.952093003895357 ], [ 53.101027866432901, 39.290573635407128 ], [ 53.35780805849123, 39.975286363274449 ], [ 52.693972609269821, 40.033629055331971 ], [ 52.915251092343624, 40.876523342444727 ], [ 54.73684533063215, 40.951014919593462 ], [ 53.72171349469059, 42.12319143327003 ], [ 52.916749708880076, 41.868116563477329 ], [ 52.814688755103617, 41.135370591794711 ], [ 52.501426222550322, 42.792297878585202 ], [ 51.342427199108215, 43.132974758469345 ], [ 50.305642938036272, 44.609835516938915 ], [ 51.278503452363225, 44.514854234386462 ], [ 51.316899041556042, 45.245998236667901 ], [ 53.040876499245201, 45.259046535821767 ], [ 53.042736850807785, 46.853006089864493 ], [ 51.191945428274266, 47.048704738953916 ], [ 49.101160000000107, 46.399330000000134 ], [ 46.68201, 44.609200000000101 ], [ 47.59094, 43.66016 ], [ 47.49252, 42.986580000000117 ], [ 50.392821079312682, 40.256561184239118 ] ] ], [ [ [ -60.895, 10.855 ], [ -60.935, 10.11 ], [ -61.95, 10.09 ], [ -61.68, 10.76 ], [ -60.895, 10.855 ] ] ], [ [ [ -78.217726610003879, 18.454532782459196 ], [ -76.896618618462128, 18.400866807524082 ], [ -76.199658576141644, 17.886867173732966 ], [ -77.206341315403478, 17.701116237859821 ], [ -78.217726610003879, 18.454532782459196 ] ] ], [ [ [ -67.10067908391774, 18.520601101144351 ], [ -65.591003790942949, 18.228034979723915 ], [ -67.184162360285271, 17.946553453030077 ], [ -67.10067908391774, 18.520601101144351 ] ] ], [ [ [ -70.806706102161741, 19.880285549391985 ], [ -68.317943284768972, 18.612197577381693 ], [ -68.689315965434517, 18.205142320218613 ], [ -70.669298468697633, 18.426885891183034 ], [ -71.400209927033899, 17.598564357976599 ], [ -72.372476162389347, 18.21496084235406 ], [ -74.458033616824778, 18.342549953682706 ], [ -72.334881557897006, 18.668421535715254 ], [ -73.189790615517623, 19.915683905511912 ], [ -70.806706102161741, 19.880285549391985 ] ] ], [ [ [ -80.618768683581195, 23.105980129483001 ], [ -74.296648118777256, 20.050378526280682 ], [ -77.755480923153073, 19.855480861891877 ], [ -77.085108405246743, 20.413353786698792 ], [ -78.137292243141587, 20.739948838783434 ], [ -78.719866502584011, 21.598113511638434 ], [ -82.16999182811864, 22.387109279870753 ], [ -81.795001797192668, 22.636964830001958 ], [ -84.974911058273108, 21.89602814380109 ], [ -83.26754757356575, 22.983041897060644 ], [ -80.618768683581195, 23.105980129483001 ] ] ], [ [ [ -77.89, 25.17 ], [ -77.54, 24.34 ], [ -77.78, 23.71 ], [ -78.40848, 24.57564 ], [ -77.89, 25.17 ] ] ], [ [ [ -77.17255, 25.87918 ], [ -77.34, 26.53 ], [ -77.79, 27.04 ], [ -77.0, 26.59 ], [ -77.17255, 25.87918 ] ] ], [ [ [ -77.85, 26.84 ], [ -78.91, 26.42 ], [ -78.98, 26.79 ], [ -77.85, 26.84 ] ] ], [ [ [ -64.01486, 47.03601 ], [ -63.6645, 46.55001 ], [ -62.01208, 46.44314 ], [ -62.87433, 45.96818 ], [ -64.1428, 46.39265 ], [ -64.01486, 47.03601 ] ] ], [ [ [ -53.476549445191367, 49.249138902374042 ], [ -53.786013759971254, 48.516780503933624 ], [ -53.086133999226263, 48.687803656603577 ], [ -52.648098720904208, 47.535548407575519 ], [ -53.069158291218386, 46.655498765644921 ], [ -54.178935512902513, 46.807065741556983 ], [ -54.240482143762137, 47.752279364607645 ], [ -55.400773078011568, 46.884993801453135 ], [ -55.997480841685828, 46.919720363953275 ], [ -55.291219041552793, 47.389562486350989 ], [ -56.250798712780586, 47.632545070987376 ], [ -59.419494188053676, 47.899453843774886 ], [ -57.35868974468606, 50.718274034215867 ], [ -55.870976935435323, 51.632094224649208 ], [ -55.406974249886588, 51.588272610065701 ], [ -56.795881720595276, 49.812308661490889 ], [ -56.143105027884332, 50.150117499382858 ], [ -55.471492275602998, 49.935815334668462 ], [ -55.822401089080962, 49.58712860777905 ], [ -53.476549445191367, 49.249138902374042 ] ] ], [ [ [ -64.17322, 49.95718 ], [ -61.806305, 49.10506 ], [ -64.51912, 49.87304 ], [ -64.17322, 49.95718 ] ] ], [ [ [ -6.733847011736145, 55.172860012423783 ], [ -5.661948614921968, 54.554603176483809 ], [ -6.788856573910849, 52.260117906292336 ], [ -9.977085740590269, 51.820454820353078 ], [ -9.166282517930782, 52.864628811242682 ], [ -9.688524542672454, 53.881362616585299 ], [ -6.733847011736145, 55.172860012423783 ] ] ], [ [ [ -21.778484259517683, 64.402115790455511 ], [ -23.955043911219111, 64.891129869233495 ], [ -22.227423265053332, 65.378593655042735 ], [ -24.326184047939336, 65.611189276788465 ], [ -23.650514695723089, 66.262519029395222 ], [ -22.134922451250887, 66.41046865504687 ], [ -20.57628373867955, 65.732112128351432 ], [ -19.05684160000159, 66.276600857194765 ], [ -14.508695441129234, 66.455892239031428 ], [ -14.739637417041607, 65.808748277440301 ], [ -13.60973222497981, 65.126671047619865 ], [ -18.656245896874992, 63.49638296167582 ], [ -22.762971971110158, 63.960178941495386 ], [ -21.778484259517683, 64.402115790455511 ] ] ], [ [ [ -75.21597, 67.44425 ], [ -76.98687, 67.09873 ], [ -77.2364, 67.58809 ], [ -75.89521, 68.28721 ], [ -75.1145, 68.01036 ], [ -75.21597, 67.44425 ] ] ], [ [ [ -67.914970465756937, 70.12194753689765 ], [ -66.969033372654195, 69.186087348091817 ], [ -68.805122850200604, 68.720198472764437 ], [ -61.851981370680605, 66.862120673277829 ], [ -63.918444383384184, 64.998668524832894 ], [ -66.721219041598516, 66.388041083432185 ], [ -68.015016038674005, 66.262725735124391 ], [ -68.141287400979195, 65.689789130304391 ], [ -65.320167609301251, 64.382737128346051 ], [ -64.669406297449683, 63.392926744227495 ], [ -65.01380388045888, 62.674185085695981 ], [ -68.783186204692697, 63.745670071051833 ], [ -66.165568203380147, 61.930897121825822 ], [ -71.023437059193853, 62.910708116295879 ], [ -74.834418911422631, 64.679075629323805 ], [ -77.709979824520076, 64.229542344816778 ], [ -78.555948859354203, 64.572906399180127 ], [ -77.897281053361979, 65.309192206474748 ], [ -73.959795294882682, 65.454764716240945 ], [ -73.94491248238262, 66.310578111426665 ], [ -72.651167161739423, 67.284575507263909 ], [ -73.311617804645721, 68.069437160912869 ], [ -76.869100918266724, 68.894735622830254 ], [ -76.228649054657382, 69.147769273547411 ], [ -78.957242194316734, 70.16688019477543 ], [ -81.30547095409176, 69.74318512641436 ], [ -88.681713223001481, 70.410741278760796 ], [ -89.513419562523026, 70.762037665480946 ], [ -88.467721116880824, 71.218185533321318 ], [ -89.88815121128755, 71.222552191849971 ], [ -90.205160285182046, 72.235074367960792 ], [ -88.408241543312869, 73.537888902471209 ], [ -85.826151089200977, 73.803815823045184 ], [ -86.562178514334121, 73.157447007938444 ], [ -85.774371304044536, 72.534125881633869 ], [ -84.850112474288224, 73.340278225387081 ], [ -82.315590176101011, 73.750950832810602 ], [ -80.600087653307682, 72.716543687624167 ], [ -80.748941616524434, 72.061906643350724 ], [ -77.824623989559598, 72.749616604290978 ], [ -74.228616095665004, 71.767144273557889 ], [ -74.099140794557712, 71.330840155717581 ], [ -72.242225714797684, 71.556924546994523 ], [ -67.914970465756937, 70.12194753689765 ] ] ], [ [ [ -20.84539, 82.72669 ], [ -31.9, 82.2 ], [ -22.07175, 81.73449 ], [ -23.16961, 81.15271 ], [ -15.76818, 81.91245 ], [ -12.20855, 81.29154 ], [ -20.04624, 80.17708 ], [ -17.73035, 80.12912 ], [ -19.70499, 78.75128 ], [ -19.67353, 77.63859 ], [ -18.47285, 76.98565 ], [ -21.67944, 76.62795 ], [ -19.83407, 76.09808 ], [ -19.59896, 75.24838 ], [ -20.66818, 75.15585 ], [ -19.37281, 74.29561 ], [ -21.59422, 74.22382 ], [ -20.43454, 73.81713 ], [ -20.76234, 73.46436 ], [ -23.56593, 73.30663 ], [ -22.29954, 72.18409 ], [ -24.79296, 72.3302 ], [ -22.13281, 71.46898 ], [ -21.75356, 70.66369 ], [ -23.53603, 70.471 ], [ -25.54341, 71.43094 ], [ -25.20135, 70.75226 ], [ -26.36276, 70.22646 ], [ -22.34902, 70.12946 ], [ -27.74737, 68.47046 ], [ -31.77665, 68.12078 ], [ -34.20196, 66.67974 ], [ -39.81222, 65.45848 ], [ -41.1887, 63.48246 ], [ -42.81938, 62.68233 ], [ -42.41666, 61.90093 ], [ -43.3784, 60.09772 ], [ -48.26294, 60.85843 ], [ -51.63325, 63.62691 ], [ -52.27659, 65.1767 ], [ -53.66166, 66.09957 ], [ -53.30161, 66.8365 ], [ -53.96911, 67.18899 ], [ -52.9804, 68.35759 ], [ -51.47536, 68.72958 ], [ -50.87122, 69.9291 ], [ -53.45629, 69.283625 ], [ -54.68336, 69.61003 ], [ -54.35884, 70.821315 ], [ -51.39014, 70.56978 ], [ -55.83468, 71.65444 ], [ -54.71819, 72.58625 ], [ -58.58516, 75.51727 ], [ -61.26861, 76.10238 ], [ -68.50438, 76.06141 ], [ -71.40257, 77.00857 ], [ -66.76397, 77.37595 ], [ -73.297, 78.04419 ], [ -73.15938, 78.43271 ], [ -65.7107, 79.39436 ], [ -65.3239, 79.75814 ], [ -68.02298, 80.11721 ], [ -60.28249, 82.03363 ], [ -53.04328, 81.88833 ], [ -50.39061, 82.43883 ], [ -44.523, 81.6607 ], [ -46.9007, 82.19979 ], [ -46.76379, 82.62796 ], [ -35.08787, 83.64513 ], [ -27.10046, 83.51966 ], [ -20.84539, 82.72669 ] ] ], [ [ [ -76.25140380859375, 72.826385498046875 ], [ -79.775833129882812, 72.802902221679702 ], [ -80.833885192871108, 73.693183898925781 ], [ -78.064437866210938, 73.651931762695312 ], [ -76.25140380859375, 72.826385498046875 ] ] ], [ [ [ -81.1, 83.02 ], [ -72.83153, 83.23324 ], [ -61.85, 82.6286 ], [ -67.65755, 81.50141 ], [ -65.48031, 81.50657 ], [ -71.18, 79.8 ], [ -76.90773, 79.32309 ], [ -75.52924, 79.19766 ], [ -76.22046, 79.01907 ], [ -75.39345, 78.52581 ], [ -79.75951, 77.20968 ], [ -77.88911, 76.777955 ], [ -80.56125, 76.17812 ], [ -89.49068, 76.47239 ], [ -89.6161, 76.95213 ], [ -87.76739, 77.17833 ], [ -88.26, 77.9 ], [ -84.97634, 77.53873 ], [ -87.96192, 78.37181 ], [ -85.09495, 79.34543 ], [ -86.93179, 80.25145 ], [ -81.84823, 80.46442 ], [ -87.59895, 80.51627 ], [ -91.58702, 81.89429 ], [ -85.5, 82.652273458057024 ], [ -83.18, 82.32 ], [ -81.1, 83.02 ] ] ], [ [ [ -179.058677334691168, -84.139411716649136 ], [ -174.382502814815666, -84.534323012223524 ], [ -169.951222907571406, -83.884646905450154 ], [ -158.071379564424916, -85.373910007669679 ], [ -148.533072883071554, -85.609037774597709 ], [ -143.107718478600475, -85.040752048683942 ], [ -142.892279432375574, -84.570496514827937 ], [ -153.586201138300169, -83.688689874199383 ], [ -152.861516690055026, -82.042692152838583 ], [ -156.837449714159533, -81.102129408694282 ], [ -150.648292609642596, -81.337308852054548 ], [ -146.417748996191818, -80.337938327962036 ], [ -149.531900804625081, -79.358204848140417 ], [ -155.329376390585736, -79.064269301264233 ], [ -158.051768358370083, -78.025675557617944 ], [ -158.365134243787992, -76.889207458654994 ], [ -151.333780483994275, -77.398737081052843 ], [ -146.104408948990056, -76.477759704747086 ], [ -146.202309949966974, -75.380410665029217 ], [ -144.909623996185786, -75.204039001616991 ], [ -144.322037122811025, -75.537196960602728 ], [ -135.21458269569132, -74.302698669582185 ], [ -119.702559570934284, -74.479018656561948 ], [ -113.944331427855104, -73.714827575829872 ], [ -112.29908301476263, -74.714198099922385 ], [ -111.261058519315668, -74.4202625530462 ], [ -107.559346483168156, -75.184453633778446 ], [ -100.64553076862228, -75.302017517242462 ], [ -100.116699998763295, -74.870932719063489 ], [ -102.545337287184566, -74.106741638331414 ], [ -103.681288621824422, -72.617530212544182 ], [ -96.33659481482897, -73.616849060204402 ], [ -90.088733283228464, -73.32291351332816 ], [ -89.226951260112969, -72.558722432595914 ], [ -85.19223629427654, -73.479699808901842 ], [ -81.470913052074195, -73.851976827132432 ], [ -80.295790981757023, -73.126956482077389 ], [ -76.221879442027102, -73.969540710596448 ], [ -68.935915900331281, -73.009392598613431 ], [ -67.134036220962059, -72.049244486630414 ], [ -68.544208543558966, -69.717397155892002 ], [ -67.58449968125035, -68.541706644819499 ], [ -67.741182623959389, -67.326845398069906 ], [ -67.251548427993725, -66.876175232052447 ], [ -63.001394415932623, -64.642308031827895 ], [ -57.811142747617566, -63.270660489504621 ], [ -57.223581712458895, -63.52542530070366 ], [ -62.022100185785462, -64.799094327401406 ], [ -62.648857794837397, -65.484942321890685 ], [ -62.120078701410762, -66.190325622674663 ], [ -63.745690070232399, -66.503846537389563 ], [ -65.665081956633344, -67.953887227499479 ], [ -63.197299770751101, -69.227556254197282 ], [ -61.806661139560617, -70.716767679984514 ], [ -60.827366909413456, -73.695242207991214 ], [ -64.352836473229615, -75.262846781565202 ], [ -70.600723843046296, -76.634494323888418 ], [ -77.240370246067641, -76.712887471675174 ], [ -73.656118740519503, -77.908111674153929 ], [ -77.925858120419321, -78.378418884442226 ], [ -78.023784959612499, -79.181833184728248 ], [ -75.360097418911721, -80.259545180175223 ], [ -59.691415574773487, -82.375850111824377 ], [ -58.222487148660889, -83.218434340343379 ], [ -49.761349860215489, -81.729171238123797 ], [ -42.80836340999241, -82.081914564948136 ], [ -40.771433478343624, -81.356894219893206 ], [ -28.549802212018733, -80.337938327962036 ], [ -29.685805223090995, -79.260226332515003 ], [ -35.639912075328311, -79.456131687333482 ], [ -35.777009650198693, -78.339248148765023 ], [ -28.882779303491418, -76.673665059565678 ], [ -17.5229817367142, -75.125697530262528 ], [ -15.701490851290259, -74.498604024400663 ], [ -15.407710333710895, -74.106741638331414 ], [ -16.465320196996402, -73.871613871403383 ], [ -15.44685523117198, -73.146541849916105 ], [ -12.293507656289592, -72.401936137022517 ], [ -10.295774298534184, -71.265416361627331 ], [ -7.416621873392444, -71.696501159806076 ], [ -6.868231573911146, -70.932310079073943 ], [ -4.341667446296924, -71.461373392878102 ], [ -0.65948910155555, -71.226245625950071 ], [ -0.228636847322093, -71.637745056290271 ], [ 7.742866245157813, -69.893768819304057 ], [ 9.525134718472202, -70.011332702768186 ], [ 10.817820672253333, -70.834331563448529 ], [ 13.422777947654367, -69.972161967090926 ], [ 15.126756626046586, -70.403246765269728 ], [ 19.259372592860018, -69.893768819304057 ], [ 22.56940311045139, -70.697182312145856 ], [ 27.093726434037251, -70.462054545217825 ], [ 31.990171746556825, -69.658641052376026 ], [ 33.870418735496571, -68.502587585574588 ], [ 38.649403517416886, -69.776204935840155 ], [ 54.533550245996025, -65.818048604443959 ], [ 56.355041131419853, -65.974783223585348 ], [ 58.744507684163864, -67.287674662392646 ], [ 61.427806430919361, -67.953887227499479 ], [ 64.052349074158997, -67.405238545856719 ], [ 68.89003828316288, -67.934301859660764 ], [ 69.673452996707454, -69.227556254197282 ], [ 67.812739699174131, -70.305268249644314 ], [ 69.066306593710237, -70.677545267874962 ], [ 67.949888950476634, -71.853287455379643 ], [ 69.869306675093867, -72.264786885719843 ], [ 71.02489505400456, -72.088415222307731 ], [ 73.86487674346921, -69.874183451465512 ], [ 77.644904412755182, -69.462684021125256 ], [ 79.113858677083897, -68.326215922162476 ], [ 82.776425815770438, -67.209281514605891 ], [ 86.752358839874773, -67.15047373465768 ], [ 87.986288690140213, -66.209910990513379 ], [ 89.670630324261595, -67.15047373465768 ], [ 95.781471795640186, -67.385653178018003 ], [ 99.718182407635027, -67.248503926715443 ], [ 102.832410923272619, -65.563283793245148 ], [ 106.181560500108731, -66.934931335568365 ], [ 113.604673293107339, -65.876804707959934 ], [ 115.602380812646516, -66.699803568640334 ], [ 119.832923618653012, -67.268089294553988 ], [ 123.221295607598904, -66.484261169550905 ], [ 128.803280470902337, -66.758611348588488 ], [ 134.757387323139824, -66.209962666945671 ], [ 135.07075320855779, -65.308570658478459 ], [ 137.460271437733923, -66.954568379839259 ], [ 145.490427280864992, -66.915345967729706 ], [ 146.646067336208148, -67.895131123983674 ], [ 148.839628534133681, -68.385023702110573 ], [ 152.502247349252457, -68.874812927372943 ], [ 154.284567498999195, -68.561292012658214 ], [ 161.570479364262724, -70.57961842868184 ], [ 167.30909549384296, -70.834331563448529 ], [ 171.206790399457532, -71.696501159806076 ], [ 169.287320998408291, -73.656019795881662 ], [ 166.094802687848414, -74.381040140936648 ], [ 163.568238560234249, -76.242580261386763 ], [ 163.489897088879729, -77.06557912206722 ], [ 164.743463983416063, -78.182513529623748 ], [ 166.995781284857344, -78.750747579105223 ], [ 161.766384719081088, -79.162247816889646 ], [ 159.788210890948335, -80.945394789553006 ], [ 169.40478152900755, -83.825890801934349 ], [ 180.0, -84.71338 ], [ 180.0, -90.0 ], [ -180.0, -90.0 ], [ -180.0, -84.71338 ], [ -179.058677334691168, -84.139411716649136 ] ] ], [ [ [ 12.570943637755136, 38.126381130519661 ], [ 15.520376010813806, 38.231155096991429 ], [ 15.099988234119422, 36.619987290995397 ], [ 12.431003859108756, 37.612949937483748 ], [ 12.570943637755136, 38.126381130519661 ] ] ], [ [ [ 8.159998406617689, 40.950007229163759 ], [ 9.210011834356266, 41.209991360024176 ], [ 9.80997521326492, 40.500008856766129 ], [ 9.669518670295616, 39.17737641047178 ], [ 8.428302443077115, 39.171847032216547 ], [ 8.159998406617689, 40.950007229163759 ] ] ], [ [ [ 9.390000848028876, 43.00998484961471 ], [ 9.229752231491773, 41.380006822264455 ], [ 8.544212680707773, 42.256516628583057 ], [ 9.390000848028876, 43.00998484961471 ] ] ], [ [ [ -5.047980922862109, 55.783985500707558 ], [ -5.586397670911197, 55.311146145236819 ], [ -6.149980841486411, 56.785009670633485 ], [ -5.786824713555291, 57.818848375064647 ], [ -5.009998745127632, 58.630013332750082 ], [ -3.005004848635281, 58.635000108466329 ], [ -4.073828497728073, 57.553024807355257 ], [ -1.959280564776918, 57.684799709699519 ], [ -3.119003058271176, 55.973793036515474 ], [ -2.085009324543023, 55.9099984808513 ], [ 0.469976840831805, 52.929999498092002 ], [ 1.681530795914682, 52.739520168664001 ], [ 1.050561557630942, 51.806760565795685 ], [ 1.449865349950244, 51.289427802121907 ], [ 0.550333693045502, 50.765738837275876 ], [ -5.776566941745273, 50.159677639356858 ], [ -3.414850633142123, 51.42600861266925 ], [ -5.267295701508942, 51.991400458374585 ], [ -4.222346564134909, 52.301355699261364 ], [ -4.77001339356417, 52.840004991255626 ], [ -4.579999152026971, 53.495003770555172 ], [ -3.092079637047107, 53.404440822963579 ], [ -2.945008510744344, 53.984999701546712 ], [ -4.844169073903061, 54.790971177786844 ], [ -5.047980922862109, 55.783985500707558 ] ] ], [ [ [ 12.089991082414684, 54.800014553437919 ], [ 10.903913608451603, 55.779954738988721 ], [ 12.370904168353292, 56.111407375708794 ], [ 12.690006137755603, 55.609990953180741 ], [ 12.089991082414684, 54.800014553437919 ] ] ], [ [ [ 17.1182, 76.80941 ], [ 13.76259, 77.38035 ], [ 14.66956, 77.73565 ], [ 11.22231, 78.8693 ], [ 10.44453, 79.65239 ], [ 16.99085, 80.05086 ], [ 21.54383, 78.95611 ], [ 19.02737, 78.5626 ], [ 17.1182, 76.80941 ] ] ], [ [ [ 32.25666710788596, 35.103232326796629 ], [ 32.946960890440806, 35.386703396133697 ], [ 34.576473829900465, 35.671595567358793 ], [ 32.979827101378447, 34.571869411755443 ], [ 32.25666710788596, 35.103232326796629 ] ] ], [ [ [ 23.699980096133004, 35.70500438083549 ], [ 26.164997592887659, 35.004995429009767 ], [ 23.514978468528081, 35.279991563450977 ], [ 23.699980096133004, 35.70500438083549 ] ] ], [ [ [ 24.72412, 77.85385 ], [ 20.72601, 77.67704 ], [ 21.41611, 77.93504 ], [ 20.8119, 78.25463 ], [ 22.88426, 78.45494 ], [ 24.72412, 77.85385 ] ] ], [ [ [ 17.368015170977458, 80.318896186026976 ], [ 22.919252557067381, 80.657144273593431 ], [ 27.407505730913446, 80.056405748200419 ], [ 23.024465773213617, 79.400011705229034 ], [ 17.368015170977458, 80.318896186026976 ] ] ], [ [ [ 68.935, -48.625 ], [ 70.525, -49.065 ], [ 70.56, -49.255 ], [ 70.28, -49.71 ], [ 68.745, -49.775 ], [ 68.935, -48.625 ] ] ], [ [ [ 49.672606642460863, -15.710203545802479 ], [ 49.774564243372708, -16.875042006093601 ], [ 47.095761346226595, -24.941629733990453 ], [ 45.409507684110451, -25.601434421493089 ], [ 44.039720493349762, -24.988345228782308 ], [ 43.254187046081, -22.057413018484123 ], [ 44.374325392439658, -20.072366224856388 ], [ 43.963084344260913, -17.409944756746782 ], [ 44.446517368351401, -16.216219170804507 ], [ 46.31224327981721, -15.780018405828798 ], [ 47.705129835812357, -14.594302666891764 ], [ 49.194651320193316, -12.04055673589197 ], [ 50.476536899625529, -15.226512139550543 ], [ 50.200274692593183, -16.000263360256767 ], [ 49.672606642460863, -15.710203545802479 ] ] ], [ [ [ 114.564511346496488, -8.751816908404855 ], [ 108.27776329959633, -7.766657403192576 ], [ 105.365486281355516, -6.851416110871206 ], [ 106.051645949327025, -5.895918877794472 ], [ 108.623478631628956, -6.777673841990705 ], [ 110.539227329553285, -6.877357679881726 ], [ 110.759575636845852, -6.465186455921747 ], [ 115.705526971501058, -8.370806573116873 ], [ 114.564511346496488, -8.751816908404855 ] ] ], [ [ [ 104.710384149191441, -5.873284600450632 ], [ 101.399113397225065, -2.799777113459164 ], [ 98.601351352943055, 1.823506577965574 ], [ 95.293026157617291, 5.479820868344788 ], [ 97.484882033277103, 5.246320909033955 ], [ 100.641433546961622, 2.099381211755741 ], [ 101.658012323007341, 2.083697414555161 ], [ 103.838396030698362, 0.104541734208695 ], [ 103.437645298274902, -0.711945896002902 ], [ 106.108593377712651, -3.061776625178965 ], [ 105.817655063909399, -5.85235564537242 ], [ 104.710384149191441, -5.873284600450632 ] ] ], [ [ [ 117.811858351717802, 0.784241848143708 ], [ 116.148083937648664, -4.012726332214022 ], [ 116.00085778204911, -3.657037448749058 ], [ 114.864803094544556, -4.106984144714396 ], [ 113.256994256647516, -3.118775729996905 ], [ 112.068126255340673, -3.478392022316051 ], [ 111.703290643360049, -2.994442233902654 ], [ 110.223846063276, -2.934032484553455 ], [ 108.952657505328204, 0.415375474444318 ], [ 109.663260125773746, 2.006466986494956 ], [ 111.168852980597478, 1.850636704918813 ], [ 111.370081007942048, 2.697303371588859 ], [ 112.995614862115218, 3.102394924324855 ], [ 117.129626092600475, 6.92805288332454 ], [ 117.689075148592309, 5.987490139180154 ], [ 119.181903924639968, 5.407835598162207 ], [ 117.313232456533498, 3.234428208830593 ], [ 117.875627069165972, 1.827640692548925 ], [ 118.996747267738158, 0.902219143066063 ], [ 117.811858351717802, 0.784241848143708 ] ] ], [ [ [ 81.304319289071771, 8.56420624433369 ], [ 81.637322218760588, 6.481775214051922 ], [ 80.348356968104412, 5.968369859232155 ], [ 79.695166863935128, 8.200843410673386 ], [ 80.147800734379643, 9.824077663609557 ], [ 81.304319289071771, 8.56420624433369 ] ] ], [ [ [ 110.339187860151469, 18.678395087147592 ], [ 109.475209588663645, 18.197700913968575 ], [ 108.655207961056163, 18.507681993071387 ], [ 108.62621748254044, 19.367887885001906 ], [ 110.786550734502214, 20.077534491450052 ], [ 110.339187860151469, 18.678395087147592 ] ] ], [ [ [ 68.852211134725081, 76.544811306454605 ], [ 58.477082147053352, 74.309056301562848 ], [ 55.419335971910925, 72.371267605266027 ], [ 55.622837762276333, 71.540594794390316 ], [ 57.535692579992315, 70.720463975702117 ], [ 53.677375115784173, 70.762657782668455 ], [ 51.601894565645665, 71.474759019650449 ], [ 51.455753615124216, 72.014881089965129 ], [ 52.478275180883543, 72.229441636840974 ], [ 52.444168735570877, 72.774731350384812 ], [ 54.427613559797578, 73.6275475124976 ], [ 53.50828982932515, 73.749813951300197 ], [ 55.902458937407658, 74.627486477345357 ], [ 55.631932814359686, 75.081412258597183 ], [ 61.170044386647476, 76.251883450008123 ], [ 68.157059767534804, 76.939696763812933 ], [ 68.852211134725081, 76.544811306454605 ] ] ], [ [ [ 105.07547, 78.30689 ], [ 99.43814, 77.921 ], [ 102.08635, 79.34641 ], [ 105.37243, 78.71334 ], [ 105.07547, 78.30689 ] ] ], [ [ [ 92.5454, 80.14379 ], [ 91.18107, 80.34146 ], [ 95.940895, 81.2504 ], [ 100.186655, 79.780135 ], [ 99.93976, 78.88094 ], [ 97.75794, 78.7562 ], [ 93.31288, 79.4265 ], [ 92.5454, 80.14379 ] ] ], [ [ [ 51.522932977103665, 80.699725653801934 ], [ 47.586119012244183, 80.010181179515328 ], [ 46.502825962109632, 80.247246812654296 ], [ 47.072455275262939, 80.559424140129508 ], [ 44.846958042181143, 80.589809882317141 ], [ 51.522932977103665, 80.699725653801934 ] ] ], [ [ [ 173.247234328502088, -41.331998793300812 ], [ 173.95840538970279, -40.926700534835646 ], [ 174.24851688058942, -41.770008233406728 ], [ 172.711246372770745, -43.372287693048555 ], [ 173.080112746470149, -43.853343601253606 ], [ 171.452925246463622, -44.242518812843699 ], [ 170.616697219116531, -45.908928724959736 ], [ 169.332331170934282, -46.641235446967876 ], [ 166.676886021184174, -46.219917494492236 ], [ 167.046424188503295, -45.110941257508635 ], [ 170.524919875366152, -43.031688327812816 ], [ 172.097227004278693, -40.956104424809716 ], [ 172.798579543344033, -40.493962090823501 ], [ 173.247234328502088, -41.331998793300812 ] ] ], [ [ [ 146.048377720320332, -43.549744561538844 ], [ 144.743754510679707, -40.70397511165767 ], [ 146.364120721623692, -41.137695407883363 ], [ 148.289067824495987, -40.875437514002108 ], [ 147.914051955353841, -43.211522312188535 ], [ 146.048377720320332, -43.549744561538844 ] ] ], [ [ [ 173.852261997775315, -39.146602471677483 ], [ 174.57480187408035, -38.797683200842755 ], [ 174.697016636450599, -37.381128838857919 ], [ 172.636005487353771, -34.529106540669432 ], [ 174.329390497126212, -35.265495700828623 ], [ 175.958490025127503, -37.55538176854612 ], [ 178.517093540762744, -37.695373223624799 ], [ 177.970460239979275, -39.166342868812976 ], [ 177.206992629299179, -39.145775648760818 ], [ 176.012440220440226, -41.289624118821472 ], [ 175.239567499082966, -41.688307793953278 ], [ 174.650972935278475, -41.281820977545401 ], [ 175.227630243223558, -40.459235528323362 ], [ 173.852261997775315, -39.146602471677483 ] ] ], [ [ [ 120.580268182458056, -33.930176690406611 ], [ 118.024971958489488, -35.0647327613747 ], [ 116.625109084134948, -35.025096937806829 ], [ 115.026808709779573, -34.196517022438933 ], [ 115.801645135563945, -32.205062351207005 ], [ 113.338953078262421, -26.116545098578484 ], [ 113.778357782040217, -26.549025160429174 ], [ 113.440962355606558, -25.621278171493167 ], [ 114.232852004047231, -26.298446140245879 ], [ 113.393523390762638, -24.384764499613226 ], [ 113.736551548316086, -22.475475355725379 ], [ 114.149756300921894, -21.755881036061041 ], [ 114.225307244932623, -22.517488295178673 ], [ 116.711615431791529, -20.701681817306824 ], [ 120.856220330896676, -19.683707777589206 ], [ 123.012574497571933, -16.405199883695886 ], [ 123.433789097183038, -17.268558037996215 ], [ 123.859344517106592, -17.069035332917288 ], [ 123.503242222183289, -16.596506036040402 ], [ 123.817073195491844, -16.111316013252001 ], [ 124.258286574399847, -16.327943617419535 ], [ 125.685796340030549, -14.23065561285385 ], [ 127.065867140817318, -13.817967624570954 ], [ 128.359689976108939, -14.869169610252243 ], [ 129.621473423379655, -14.969783623924522 ], [ 129.409600050982931, -14.42066985439107 ], [ 130.617795037966971, -12.536392103732489 ], [ 132.575298293183096, -12.114040622611007 ], [ 131.824698114143644, -11.273781833545151 ], [ 132.357223748911395, -11.128519382372696 ], [ 135.298491245667947, -12.248606052299046 ], [ 136.492475213771684, -11.857208754120398 ], [ 136.951620314684988, -12.351958916882793 ], [ 135.961758254134168, -13.324509372615852 ], [ 135.500184360903177, -14.997740573794424 ], [ 140.215245396078274, -17.710804945550066 ], [ 141.274095493738741, -16.38887013109165 ], [ 141.686990187750837, -12.407614434461145 ], [ 142.51526004452495, -10.668185723516686 ], [ 143.922099237238911, -14.548310642151996 ], [ 144.563713820574833, -14.171176039285903 ], [ 145.374723748963504, -14.98497649501833 ], [ 146.387478469019641, -18.958274021075887 ], [ 148.848413527623222, -20.391209812097244 ], [ 149.678337030230693, -22.342511895438385 ], [ 150.727265252891129, -22.402404880464665 ], [ 150.899554478152254, -23.462236830338696 ], [ 152.855197381805908, -25.267501316023001 ], [ 153.569469028944184, -28.110066827102081 ], [ 152.891577590139377, -31.640445651985999 ], [ 150.32821984273329, -35.671879164371916 ], [ 149.997283970336127, -37.42526051203518 ], [ 146.317921991154776, -39.035756524411411 ], [ 144.876976353128157, -38.417448012039152 ], [ 145.032212355732952, -37.896187839511022 ], [ 143.60997358619602, -38.8094654274053 ], [ 140.638578729413268, -38.019332777662555 ], [ 139.574147577065276, -36.138362318670659 ], [ 138.120747918856352, -35.61229623793939 ], [ 138.207564325106716, -34.384722588845932 ], [ 136.829405552314711, -35.260534763328607 ], [ 137.890116001537706, -33.640478610978377 ], [ 137.810327590079055, -32.900007012668119 ], [ 135.989043410384284, -34.890118096660458 ], [ 135.208212518454047, -34.478670342752565 ], [ 134.273902622617015, -32.617233575166992 ], [ 131.326330601120844, -31.495803318001041 ], [ 126.148713820501143, -32.215966078420593 ], [ 124.221647983904916, -32.959486586236068 ], [ 123.659666782730767, -33.890179131812708 ], [ 120.580268182458056, -33.930176690406611 ] ] ], [ [ [ 164.029605747736014, -20.105645847252354 ], [ 165.02003624904205, -20.45999114347773 ], [ 167.120011428086912, -22.159990736583492 ], [ 165.474375441752215, -21.679606621998232 ], [ 164.029605747736014, -20.105645847252354 ] ] ], [ [ [ 177.67087, -17.38114 ], [ 178.71806, -17.62846 ], [ 178.55271, -18.15059 ], [ 177.38146, -18.16432 ], [ 177.67087, -17.38114 ] ] ], [ [ [ 180.0, -16.555216566639196 ], [ 178.725059362997115, -17.012041674368039 ], [ 178.596838595117134, -16.63915 ], [ 180.0, -16.067132663642447 ], [ 180.0, -16.555216566639196 ] ] ], [ [ [ 167.2168013857696, -15.89184620530842 ], [ 167.84487674384502, -16.46633310309717 ], [ 167.515181105822876, -16.597849623279991 ], [ 167.2168013857696, -15.89184620530842 ] ] ], [ [ [ 166.6291369977464, -14.626497084209605 ], [ 167.107712437201485, -14.933920179913954 ], [ 167.270028111030229, -15.740020847234888 ], [ 166.79315799384085, -15.668810723536687 ], [ 166.6291369977464, -14.626497084209605 ] ] ], [ [ [ 161.319796991214758, -10.204751478723168 ], [ 162.119024693040899, -10.482719008021149 ], [ 162.398645868172196, -10.826367282762106 ], [ 161.700032180018354, -10.820011081590211 ], [ 161.319796991214758, -10.204751478723168 ] ] ], [ [ [ 119.900309686361567, -9.361340427287502 ], [ 120.715608758630452, -10.239581394087885 ], [ 118.967808465654713, -9.557969252158074 ], [ 119.900309686361567, -9.361340427287502 ] ] ], [ [ [ 123.980008986508096, -9.290026950724716 ], [ 127.33592817597463, -8.397316582882603 ], [ 123.579981724136687, -10.359987481327956 ], [ 123.980008986508096, -9.290026950724716 ] ] ], [ [ [ 160.852228631837875, -9.872937106977048 ], [ 159.640002883135139, -9.639979750205278 ], [ 159.70294477766663, -9.242949720906815 ], [ 160.852228631837875, -9.872937106977048 ] ] ], [ [ [ 160.788253208660535, -8.917543226764892 ], [ 160.579997186524338, -8.32000864017396 ], [ 161.529396600590587, -9.784312025596485 ], [ 160.788253208660535, -8.917543226764892 ] ] ], [ [ [ 117.900018345207755, -8.095681247594939 ], [ 119.126506789223072, -8.705824883665088 ], [ 116.740140822416649, -9.032936700072646 ], [ 117.083737420725299, -8.457157891476591 ], [ 117.900018345207755, -8.095681247594939 ] ] ], [ [ [ 120.715091994307571, -8.236964613480914 ], [ 122.007364536630433, -8.460620212440148 ], [ 122.903537225436068, -8.094234307490765 ], [ 122.756982863456315, -8.649807631060696 ], [ 119.924390903809581, -8.810417982623839 ], [ 120.715091994307571, -8.236964613480914 ] ] ], [ [ [ 158.359977655265425, -7.320017998893917 ], [ 159.917401971677918, -8.538289890174831 ], [ 158.211149530264834, -7.421872246941199 ], [ 158.359977655265425, -7.320017998893917 ] ] ], [ [ [ 157.538425734689213, -7.347819919466943 ], [ 156.491357863591304, -6.765943291860452 ], [ 156.542827590153991, -6.599338474151452 ], [ 157.538425734689213, -7.347819919466943 ] ] ], [ [ [ 146.970905389594861, -6.721656589386313 ], [ 150.690574985963906, -10.582712904505925 ], [ 147.913018426707993, -10.13044076908745 ], [ 146.048481073184917, -8.067414239131281 ], [ 144.744167922138047, -7.630128269077446 ], [ 143.286375767184325, -8.245491224809079 ], [ 143.413913202080664, -8.983068942910982 ], [ 142.628431431244167, -9.326820570516524 ], [ 139.127766554928087, -8.096042982620979 ], [ 137.614473911692869, -8.41168263105974 ], [ 138.668621454014783, -7.320224704623087 ], [ 137.927839797110778, -5.393365573756 ], [ 133.662880487197867, -3.538853448097541 ], [ 132.983955519747269, -4.112978610860253 ], [ 131.989804315316178, -2.820551039240499 ], [ 133.69621178602614, -2.214541517753702 ], [ 132.232373488494261, -2.212526136894319 ], [ 130.519558140180095, -0.937720228686089 ], [ 132.380116408416711, -0.369537855636949 ], [ 133.985548130428356, -0.780210463060456 ], [ 134.422627394753022, -2.769184665542376 ], [ 135.457602980694674, -3.367752780779149 ], [ 136.293314243718839, -2.307042331556154 ], [ 138.329727411044701, -1.702686455902693 ], [ 144.583970982033236, -3.861417738463416 ], [ 145.981921828393013, -5.465609226100043 ], [ 147.648073358347574, -6.083659356310847 ], [ 147.891107619416232, -6.614014580922343 ], [ 146.970905389594861, -6.721656589386313 ] ] ], [ [ [ 134.499625278867882, -5.445042006047871 ], [ 134.724624465066711, -6.214400730009288 ], [ 134.210133905168846, -6.89523772545472 ], [ 134.112775506730941, -6.142467136259 ], [ 134.499625278867882, -5.445042006047871 ] ] ], [ [ [ 154.514114211239644, -5.139117526879986 ], [ 156.019965448224809, -6.540013929880381 ], [ 155.880025669578401, -6.819996840037753 ], [ 155.166994256815144, -6.535931491729322 ], [ 154.514114211239644, -5.139117526879986 ] ] ], [ [ [ 149.845561965127217, -5.505503431829368 ], [ 150.139755894164864, -5.001348158389852 ], [ 150.236907586873542, -5.532220147324267 ], [ 150.80746707580812, -5.455842380396874 ], [ 151.647880894170896, -4.757073662946162 ], [ 151.537861769821461, -4.167807305521933 ], [ 152.338743117480931, -4.312966403829805 ], [ 151.982795851854519, -5.478063246282382 ], [ 150.241196730753813, -6.317753594593028 ], [ 148.318936802360668, -5.747142429226166 ], [ 149.845561965127217, -5.505503431829368 ] ] ], [ [ [ 150.662049595338829, -2.741486097833935 ], [ 152.239989455371131, -3.24000864015364 ], [ 153.14003787659874, -4.499983412294092 ], [ 152.827292108368283, -4.766427097190991 ], [ 152.406025832324929, -3.789742526874583 ], [ 150.662049595338829, -2.741486097833935 ] ] ], [ [ [ 127.000651483264974, -3.129317722184446 ], [ 126.874922723498855, -3.790982761249587 ], [ 125.989033644719257, -3.177273451351305 ], [ 127.000651483264974, -3.129317722184446 ] ] ], [ [ [ 128.135879347852836, -2.843650404474971 ], [ 130.471344028851775, -3.093764336767634 ], [ 130.834836053592824, -3.858472181822776 ], [ 127.898891229362349, -3.393435967628207 ], [ 128.135879347852836, -2.843650404474971 ] ] ], [ [ [ 120.183083123862716, 0.237246812334234 ], [ 120.040869582195484, -0.519657891444837 ], [ 120.935905389490728, -1.408905938323393 ], [ 123.340564813328456, -0.615672702643138 ], [ 121.508273553555512, -1.904482924002458 ], [ 123.170962762546552, -4.683693129091701 ], [ 122.628515252778755, -5.634591159694466 ], [ 122.236394484548015, -5.282933037948268 ], [ 122.719569126477012, -4.464171644715826 ], [ 121.738233677254357, -4.851331475446543 ], [ 120.898181593917656, -3.602105401222794 ], [ 120.972388950688782, -2.627642917494939 ], [ 120.305452915529855, -2.931603692235733 ], [ 120.430716587405371, -5.528241062037793 ], [ 119.366905552244887, -5.37987802492782 ], [ 119.498835483886012, -3.494411716326532 ], [ 118.767768996252869, -2.801999200047718 ], [ 119.82599897672587, 0.154254462073482 ], [ 120.885779250167616, 1.30922272379685 ], [ 122.927566766451804, 0.875192368977409 ], [ 125.240500522971502, 1.419836127117605 ], [ 123.685504998876695, 0.235593166500891 ], [ 120.183083123862716, 0.237246812334234 ] ] ], [ [ [ 127.696474644075067, -0.266598402511534 ], [ 127.399490187693686, 1.011721503092545 ], [ 127.932377557487484, 2.174596258956569 ], [ 128.594559360875508, 1.540810655112878 ], [ 128.635952183141342, 0.258485826006194 ], [ 128.120169712436109, 0.356412665199286 ], [ 127.968034295768859, -0.252077325037519 ], [ 128.379998813999691, -0.7800037573313 ], [ 127.696474644075067, -0.266598402511534 ] ] ], [ [ [ 124.219787632342388, 6.161355495626154 ], [ 124.243662144061275, 7.360610459823661 ], [ 123.610212437027485, 7.83352732994274 ], [ 121.91992801319256, 7.192119452336015 ], [ 123.487687616063468, 8.69300975182118 ], [ 123.841154412939829, 8.240324204944372 ], [ 125.471390822451554, 8.986996975129657 ], [ 125.412117954612768, 9.760334784377534 ], [ 126.2227144715431, 9.286074327018866 ], [ 126.196772902532587, 6.274294338400054 ], [ 125.831420526229067, 7.293715318221842 ], [ 125.396511672060626, 5.581003322772276 ], [ 124.219787632342388, 6.161355495626154 ] ] ], [ [ [ 119.689676548339889, 10.554291490109875 ], [ 117.174274530100661, 8.367499904814679 ], [ 119.511496209797514, 11.3696680770272 ], [ 119.689676548339889, 10.554291490109875 ] ] ], [ [ [ 124.077935825701203, 11.232725531453738 ], [ 122.995883009941664, 9.022188625520414 ], [ 122.38005496631942, 9.713360907424217 ], [ 122.947410516451896, 10.881868394408061 ], [ 123.498849725438447, 10.94062449792392 ], [ 123.337774285984722, 10.267383938025404 ], [ 124.077935825701203, 11.232725531453738 ] ] ], [ [ [ 122.002610304859573, 10.441016750526089 ], [ 121.883547804859091, 11.891755072471994 ], [ 123.120216506035945, 11.583660183147856 ], [ 122.002610304859573, 10.441016750526089 ] ] ], [ [ [ 124.302521600441708, 11.495370998577187 ], [ 124.891012811381529, 11.415582587118536 ], [ 124.266761509295691, 12.557760931849671 ], [ 125.227116327007877, 12.53572093347718 ], [ 125.783464797062209, 11.046121934447783 ], [ 125.01188398651226, 11.311454576050409 ], [ 125.277449172060187, 10.358722032101284 ], [ 124.801819289245771, 10.134678859899864 ], [ 124.302521600441708, 11.495370998577187 ] ] ], [ [ [ 121.180128208502111, 13.429697373910443 ], [ 121.262190382981586, 12.205560207564403 ], [ 120.323436313967449, 13.466413479053825 ], [ 121.180128208502111, 13.429697373910443 ] ] ], [ [ [ 121.728828566577207, 14.328376369682275 ], [ 123.950295037940293, 13.782130642141027 ], [ 124.077419061378293, 12.536676947474575 ], [ 122.928651971529945, 13.552919826710422 ], [ 122.671355015148706, 13.185836289925092 ], [ 122.034649692880521, 13.784481919810304 ], [ 120.62863732308324, 13.857655747935596 ], [ 120.991819289230534, 14.52539276779504 ], [ 120.070428501466438, 14.970869452367126 ], [ 119.88377322802819, 16.363704331929995 ], [ 120.286487664878749, 16.034628811095345 ], [ 120.715867140791914, 18.505227362537525 ], [ 122.246006300954292, 18.478949896717097 ], [ 122.515653924653293, 17.093504746971973 ], [ 121.505069614753424, 15.124813544164622 ], [ 121.728828566577207, 14.328376369682275 ] ] ], [ [ [ 121.777817824389928, 24.3942735865194 ], [ 121.175632358892742, 22.790857245367167 ], [ 120.747079705896226, 21.970571397382113 ], [ 120.106188592612398, 23.556262722258236 ], [ 121.495044386888779, 25.295458889257386 ], [ 121.777817824389928, 24.3942735865194 ] ] ], [ [ [ 133.014858026257798, 32.704567369104737 ], [ 132.363114862192674, 32.989382025681394 ], [ 132.924372593314729, 34.060298570282043 ], [ 134.638428176003856, 34.149233710256354 ], [ 134.203415968970887, 33.201177883429636 ], [ 133.792950067276536, 33.521985175097598 ], [ 133.014858026257798, 32.704567369104737 ] ] ], [ [ [ 135.120982700745401, 33.849071153289003 ], [ 135.07943484918269, 34.596544908174806 ], [ 130.986144647343451, 33.885761420216241 ], [ 132.000036248909964, 33.149992377244544 ], [ 130.686317987185987, 31.029579169228246 ], [ 130.202419875204896, 31.418237616495432 ], [ 130.447676222862128, 32.319474595665696 ], [ 129.408463169472554, 33.296055813117519 ], [ 132.617672967662429, 35.433393052709405 ], [ 135.677537876528845, 35.527134100886869 ], [ 136.723830601142424, 37.304984239240326 ], [ 137.390611607004473, 36.82739065199884 ], [ 139.426404657142825, 38.215962225897613 ], [ 140.054790073812001, 39.43880748143637 ], [ 139.883379347899847, 40.563312486323682 ], [ 140.305782505453635, 41.195005194659529 ], [ 141.36897342342661, 41.378559882160275 ], [ 141.884600864834965, 39.180864569651476 ], [ 140.959489373945814, 38.174000962876619 ], [ 140.2532792502451, 35.138113918593646 ], [ 137.217598911691255, 34.606285915661829 ], [ 135.792983026268928, 33.464805202766627 ], [ 135.120982700745401, 33.849071153289003 ] ] ], [ [ [ 139.955106235920994, 41.56955597591103 ], [ 140.312087030193254, 43.333272610032687 ], [ 141.380548944259999, 43.388824774746439 ], [ 141.967644891527982, 45.551483466161343 ], [ 143.910161981379474, 44.174099839853739 ], [ 145.320825230083074, 44.384732977875409 ], [ 145.543137241802697, 43.262088324550618 ], [ 144.059661899999867, 42.988358262700558 ], [ 143.183849725517234, 41.995214748699198 ], [ 141.6114909201724, 42.6787905950561 ], [ 141.067286411706675, 41.584593817707969 ], [ 139.955106235920994, 41.56955597591103 ] ] ], [ [ [ 143.505277134372648, 46.137907619809525 ], [ 142.747700636973832, 46.740764878926512 ], [ 142.092030064054541, 45.966755276058834 ], [ 141.906925083585008, 46.805928860046563 ], [ 142.179983351815281, 50.952342434281903 ], [ 141.594075962490024, 51.9354348822025 ], [ 141.682546014573688, 53.301966457728795 ], [ 142.606934035410745, 53.762145087287934 ], [ 142.209748976815433, 54.225475979216874 ], [ 142.654786411713019, 54.365880845753892 ], [ 143.235267775647628, 51.756660264688762 ], [ 144.65414757708561, 48.976390692737539 ], [ 143.173927850517202, 49.306551418650315 ], [ 142.558668247650132, 47.861575018904951 ], [ 143.533492466404027, 46.836728013692522 ], [ 143.505277134372648, 46.137907619809525 ] ] ], [ [ [ 178.7253, 71.0988 ], [ 180.0, 71.515714336428289 ], [ 180.0, 70.832199208546726 ], [ 178.7253, 71.0988 ] ] ], [ [ [ 139.86312, 73.36983 ], [ 142.06207, 73.85758 ], [ 143.60385, 73.21244 ], [ 139.86312, 73.36983 ] ] ], [ [ [ 149.575925, 74.68892 ], [ 146.11919, 75.17298 ], [ 150.73167, 75.08406 ], [ 149.575925, 74.68892 ] ] ], [ [ [ 137.51176, 75.94917 ], [ 145.086285, 75.562625 ], [ 144.3, 74.82 ], [ 138.95544, 74.61148 ], [ 136.97439, 75.26167 ], [ 137.51176, 75.94917 ] ] ] ] } }
]
}
